{"type":"FeatureCollection","features":[{"type":"Feature","geometry":{"type":"Polygon","coordinates":[[[74.24794,19.96289],[74.2415,19.96295],[74.23937,19.96395],[74.23698,19.96725],[74.23576,19.96822],[74.23098,19.96836],[74.23118,19.96671],[74.22655,19.95928],[74.22644,19.9587],[74.22777,19.95701],[74.22734,19.95627],[74.22476,19.9573],[74.22437,19.9571],[74.22074,19.95446],[74.21999,19.95194],[74.21782,19.95232],[74.20982,19.95042],[74.20774,19.95059],[74.20604,19.94931],[74.20386,19.95068],[74.2027,19.95078],[74.20312,19.95126],[74.20294,19.95414],[74.17805,19.95708],[74.17653,19.95305],[74.15823,19.95377],[74.14011,19.95538],[74.13003,19.95526],[74.12992,19.95759],[74.10327,19.96465],[74.08884,19.96949],[74.087,19.96343],[74.08347,19.95564],[74.07975,19.94389],[74.0783,19.94009],[74.07779,19.94004],[74.0759,19.9342],[74.06705,19.93611],[74.05984,19.93628],[74.05577,19.93534],[74.05705,19.93294],[74.04882,19.93077],[74.04785,19.93006],[74.03585,19.92839],[74.03323,19.93034],[74.03217,19.93353],[74.02899,19.93373],[74.02738,19.93483],[74.02447,19.93463],[74.02143,19.93592],[74.01867,19.93595],[74.01814,19.93663],[74.01721,19.93683],[74.01696,19.93776],[74.01586,19.93807],[74.01553,19.9394],[74.01458,19.93977],[74.01391,19.9385],[74.00711,19.93933],[74.00312,19.94036],[73.99524,19.94052],[73.99494,19.9401],[73.99389,19.94163],[73.99507,19.94371],[73.99855,19.94492],[73.99931,19.94552],[73.99961,19.94678],[73.99876,19.95094],[73.99752,19.95193],[73.9961,19.95616],[73.99253,19.96022],[73.98743,19.96134],[73.98746,19.96097],[73.98423,19.96019],[73.9807,19.95986],[73.97949,19.96165],[73.97994,19.96219],[73.97915,19.96462],[73.97791,19.96506],[73.97793,19.96592],[73.97488,19.96967],[73.97476,19.97108],[73.97561,19.97199],[73.97476,19.9746],[73.96923,19.971],[73.96646,19.9705],[73.96089,19.97107],[73.95134,19.97503],[73.94516,19.97358],[73.94406,19.9742],[73.93945,19.97516],[73.93969,19.9621],[73.94104,19.95386],[73.93717,19.95335],[73.93715,19.95219],[73.9365,19.95163],[73.93645,19.94976],[73.93242,19.9495],[73.93175,19.94413],[73.93204,19.94277],[73.93662,19.93677],[73.93701,19.93249],[73.93442,19.93527],[73.93112,19.93556],[73.93127,19.93635],[73.93052,19.93565],[73.92756,19.93495],[73.92207,19.93079],[73.91837,19.92913],[73.91347,19.92851],[73.91088,19.92663],[73.91223,19.92323],[73.91315,19.91674],[73.91627,19.91052],[73.91734,19.90961],[73.91815,19.90785],[73.92162,19.89818],[73.91608,19.90145],[73.90693,19.90059],[73.90233,19.901],[73.89235,19.89961],[73.89293,19.89818],[73.89336,19.89266],[73.89509,19.88813],[73.89526,19.88395],[73.88913,19.88546],[73.87654,19.89247],[73.87398,19.89078],[73.87255,19.88884],[73.86898,19.88844],[73.8679,19.87798],[73.8664,19.87694],[73.86615,19.87593],[73.86897,19.87443],[73.86865,19.87206],[73.87037,19.8596],[73.86365,19.85981],[73.85949,19.86096],[73.85423,19.86149],[73.85363,19.85908],[73.84116,19.85495],[73.83498,19.85363],[73.83664,19.84938],[73.83955,19.84717],[73.84025,19.84576],[73.83976,19.84461],[73.83736,19.84304],[73.83245,19.8414],[73.83022,19.83953],[73.82789,19.8361],[73.82733,19.83008],[73.82943,19.82708],[73.82878,19.82518],[73.82613,19.82177],[73.82229,19.8207],[73.81695,19.81701],[73.81226,19.81595],[73.81123,19.81411],[73.81152,19.81252],[73.81258,19.81131],[73.81194,19.80959],[73.81059,19.80885],[73.80722,19.80873],[73.80588,19.80777],[73.80586,19.8061],[73.80716,19.80485],[73.80769,19.80349],[73.8065,19.7994],[73.80674,19.7987],[73.80972,19.79723],[73.80976,19.79539],[73.80878,19.79396],[73.80905,19.79371],[73.82176,19.78827],[73.82258,19.78745],[73.82417,19.7872],[73.82595,19.78579],[73.83014,19.78375],[73.83211,19.78424],[73.8341,19.78387],[73.83629,19.78183],[73.83647,19.7803],[73.83501,19.779],[73.83468,19.77637],[73.83309,19.7753],[73.8315,19.77144],[73.83096,19.77174],[73.82884,19.77139],[73.82909,19.77002],[73.83018,19.76916],[73.83094,19.7695],[73.83247,19.76838],[73.83463,19.75999],[73.83375,19.75986],[73.8342,19.75681],[73.83272,19.75423],[73.83256,19.74986],[73.83212,19.74857],[73.82803,19.74478],[73.82599,19.74388],[73.83207,19.74206],[73.8355,19.74216],[73.83868,19.74055],[73.84259,19.74155],[73.84404,19.74274],[73.84851,19.74355],[73.84948,19.74526],[73.85985,19.7422],[73.86117,19.74231],[73.86597,19.74512],[73.86695,19.74193],[73.8682,19.741],[73.87192,19.74047],[73.87325,19.73936],[73.87347,19.74114],[73.87569,19.74079],[73.87623,19.74117],[73.87708,19.73999],[73.87909,19.73863],[73.8808,19.73815],[73.88084,19.74072],[73.88459,19.74027],[73.88426,19.74303],[73.88647,19.74377],[73.88685,19.74897],[73.88874,19.75166],[73.88933,19.74835],[73.89102,19.74693],[73.89712,19.74643],[73.89876,19.74689],[73.89998,19.74225],[73.89756,19.72888],[73.89828,19.72829],[73.89855,19.72543],[73.89526,19.71821],[73.89549,19.7156],[73.89647,19.71377],[73.89906,19.71088],[73.90195,19.71008],[73.9044,19.70643],[73.90515,19.70325],[73.90602,19.70281],[73.90743,19.7032],[73.91161,19.7011],[73.91101,19.69795],[73.91255,19.69721],[73.91319,19.69545],[73.91266,19.69377],[73.9093,19.69506],[73.90748,19.69679],[73.90553,19.69544],[73.90443,19.6938],[73.90492,19.69155],[73.90617,19.69143],[73.90722,19.68917],[73.90718,19.68842],[73.90766,19.688],[73.90708,19.68675],[73.90801,19.68533],[73.90809,19.68372],[73.90901,19.6821],[73.91101,19.68172],[73.9143,19.68019],[73.91523,19.67887],[73.92285,19.67499],[73.92316,19.67357],[73.92463,19.6733],[73.92592,19.67169],[73.92757,19.67478],[73.93019,19.67313],[73.93074,19.67024],[73.9319,19.66994],[73.93561,19.67119],[73.9379,19.67111],[73.93905,19.66994],[73.94285,19.67123],[73.94424,19.67083],[73.94598,19.672],[73.94756,19.6714],[73.94943,19.67178],[73.94984,19.67229],[73.95307,19.67114],[73.95723,19.66832],[73.95819,19.66882],[73.95836,19.66992],[73.95917,19.67075],[73.95872,19.67194],[73.96164,19.67391],[73.9638,19.67283],[73.96519,19.67294],[73.9664,19.67126],[73.96969,19.67049],[73.97087,19.67108],[73.97201,19.67286],[73.97209,19.67435],[73.97427,19.67482],[73.97601,19.67444],[73.9788,19.67541],[73.98176,19.67127],[73.98404,19.67052],[73.98509,19.66952],[73.98727,19.66967],[73.98933,19.66859],[73.9908,19.66903],[73.99295,19.66786],[73.9954,19.66754],[73.99822,19.66775],[74.00015,19.6695],[74.0037,19.66757],[74.00878,19.6722],[74.01215,19.66972],[74.01448,19.67228],[74.01764,19.67224],[74.02141,19.67367],[74.02433,19.67071],[74.03079,19.66964],[74.03283,19.66866],[74.03391,19.66774],[74.03503,19.66573],[74.04366,19.66694],[74.04562,19.66647],[74.04995,19.6629],[74.05233,19.66227],[74.05638,19.66222],[74.05956,19.66091],[74.06606,19.66099],[74.06845,19.66162],[74.06959,19.66099],[74.07133,19.66085],[74.07311,19.65844],[74.07684,19.65802],[74.07848,19.65555],[74.0782,19.65306],[74.07885,19.652],[74.0801,19.65202],[74.08236,19.65011],[74.08805,19.64768],[74.09226,19.64291],[74.0945,19.64242],[74.09676,19.64113],[74.09953,19.64292],[74.10034,19.64414],[74.10167,19.64859],[74.11022,19.64456],[74.1164,19.64663],[74.11719,19.64528],[74.11907,19.64478],[74.12011,19.64279],[74.1235,19.64779],[74.12405,19.64935],[74.12367,19.65184],[74.12591,19.65379],[74.12642,19.65649],[74.12843,19.65935],[74.1317,19.6617],[74.1344,19.66443],[74.13456,19.66738],[74.13649,19.66837],[74.1382,19.67096],[74.14226,19.6709],[74.14401,19.67185],[74.14506,19.67364],[74.14137,19.67978],[74.1382,19.68209],[74.13693,19.68404],[74.13837,19.6865],[74.13732,19.68847],[74.13481,19.69092],[74.13546,19.69079],[74.13582,19.69303],[74.1372,19.69447],[74.13885,19.69522],[74.142,19.69329],[74.14477,19.69228],[74.14693,19.69037],[74.14912,19.68727],[74.14902,19.68668],[74.15099,19.68504],[74.15179,19.68602],[74.15141,19.6871],[74.15239,19.68778],[74.15277,19.69086],[74.15379,19.69263],[74.1527,19.69381],[74.15316,19.69545],[74.15439,19.69618],[74.15562,19.70057],[74.15837,19.70409],[74.15734,19.70486],[74.15744,19.70561],[74.15654,19.70655],[74.15639,19.70762],[74.15671,19.70846],[74.15828,19.70958],[74.16135,19.7141],[74.16252,19.71493],[74.16439,19.71819],[74.16465,19.72046],[74.16376,19.725],[74.1647,19.72811],[74.16646,19.72985],[74.18033,19.7314],[74.18368,19.73229],[74.18879,19.73915],[74.19755,19.73942],[74.20275,19.7387],[74.21085,19.73935],[74.22044,19.73752],[74.22438,19.73982],[74.22373,19.742],[74.23386,19.74394],[74.2376,19.74375],[74.24671,19.74439],[74.24755,19.75171],[74.26454,19.75801],[74.26545,19.75935],[74.26963,19.76062],[74.27112,19.76796],[74.27398,19.776],[74.27487,19.77728],[74.28737,19.77634],[74.29844,19.77243],[74.30393,19.76966],[74.30983,19.76738],[74.30957,19.76625],[74.31707,19.76506],[74.31845,19.76652],[74.31911,19.76621],[74.32006,19.76669],[74.3206,19.76783],[74.32237,19.76886],[74.32571,19.77249],[74.32302,19.77827],[74.32279,19.77996],[74.32705,19.79444],[74.32703,19.79563],[74.33369,19.79773],[74.3451,19.79865],[74.35004,19.79779],[74.34981,19.79548],[74.3515,19.79577],[74.3531,19.79515],[74.35402,19.79696],[74.35503,19.79771],[74.35579,19.79779],[74.35654,19.79718],[74.35849,19.79771],[74.3593,19.79735],[74.35963,19.79816],[74.35922,19.80149],[74.36163,19.80061],[74.36237,19.8009],[74.36267,19.80258],[74.36407,19.80277],[74.36402,19.80203],[74.36516,19.80195],[74.36585,19.80273],[74.36583,19.80369],[74.36752,19.80345],[74.36767,19.804],[74.36703,19.80492],[74.3681,19.80557],[74.36863,19.80533],[74.36825,19.80461],[74.36856,19.80401],[74.36923,19.80428],[74.37022,19.80389],[74.37035,19.80257],[74.37139,19.80181],[74.37377,19.80157],[74.37448,19.80221],[74.3737,19.80408],[74.37292,19.80429],[74.3735,19.80538],[74.37177,19.80628],[74.3694,19.80961],[74.36734,19.8109],[74.3692,19.83467],[74.36537,19.834],[74.36331,19.83307],[74.36309,19.83416],[74.3622,19.85045],[74.36332,19.87139],[74.35852,19.87082],[74.34873,19.87117],[74.33916,19.87258],[74.33751,19.87239],[74.33676,19.88267],[74.33546,19.88655],[74.32914,19.88802],[74.32562,19.88962],[74.32149,19.88997],[74.30958,19.89293],[74.30968,19.89395],[74.30205,19.89667],[74.29051,19.89832],[74.28924,19.902],[74.28999,19.90266],[74.29025,19.9037],[74.27466,19.90633],[74.27629,19.91822],[74.27375,19.93011],[74.2728,19.9327],[74.2696,19.934],[74.26522,19.93467],[74.24779,19.93542],[74.24752,19.95332],[74.24794,19.96289]]]},"properties":{"id":"boundary_r10345694","type":"admin_boundary","name":"Sinnar Taluka","name_local":"सिन्नर तालुका","category":"admin_level 6","source":"openstreetmap","source_id":"relation/10345694","updated_at":"2025-12-16T18:09:53Z","tags":{"name:mr":"सिन्नर तालुका","wikipedia":"mr:सिन्नर तालुका","wikidata":"Q2722162"}}},{"type":"Feature","geometry":{"type":"Polygon","coordinates":[[[73.61978,19.88352],[73.61776,19.88306],[73.61257,19.88944],[73.61145,19.89024],[73.6086,19.88879],[73.60287,19.88843],[73.60285,19.888],[73.59378,19.88873],[73.59173,19.88829],[73.59013,19.88736],[73.58677,19.88839],[73.58483,19.88954],[73.58291,19.88913],[73.57752,19.89223],[73.57084,19.89126],[73.56705,19.8902],[73.56318,19.8877],[73.55974,19.88652],[73.55732,19.88483],[73.55335,19.87913],[73.54583,19.88296],[73.54516,19.88405],[73.54007,19.88342],[73.53656,19.88362],[73.53512,19.88144],[73.53514,19.87987],[73.53586,19.87801],[73.53316,19.87756],[73.53308,19.8752],[73.53396,19.87458],[73.53414,19.87483],[73.53642,19.87077],[73.53689,19.86859],[73.53676,19.86548],[73.53799,19.86011],[73.53749,19.859],[73.53867,19.85744],[73.53751,19.85561],[73.538,19.85465],[73.53551,19.85172],[73.53381,19.85115],[73.53275,19.85185],[73.5266,19.85124],[73.52588,19.85012],[73.5203,19.84666],[73.51881,19.84507],[73.51898,19.84287],[73.51973,19.84189],[73.51934,19.84157],[73.52248,19.83635],[73.52106,19.83121],[73.52145,19.82729],[73.51949,19.82299],[73.51778,19.82115],[73.51987,19.81871],[73.51977,19.81775],[73.52032,19.81766],[73.51938,19.81685],[73.51946,19.81603],[73.51578,19.81328],[73.51102,19.81113],[73.50724,19.81088],[73.50593,19.80878],[73.50251,19.80736],[73.50123,19.80751],[73.49814,19.80682],[73.49797,19.80384],[73.49848,19.80284],[73.49833,19.8017],[73.49698,19.79976],[73.49702,19.79794],[73.49567,19.79706],[73.49498,19.7944],[73.49233,19.79242],[73.49133,19.7887],[73.48912,19.78558],[73.48844,19.78145],[73.49015,19.77545],[73.49238,19.77257],[73.49861,19.76717],[73.49843,19.76115],[73.5015,19.75577],[73.50396,19.75008],[73.50448,19.74798],[73.5041,19.74588],[73.50253,19.74443],[73.50132,19.74406],[73.50067,19.74305],[73.50243,19.74054],[73.5023,19.73916],[73.49997,19.73713],[73.5001,19.73635],[73.50432,19.7332],[73.50225,19.73218],[73.49934,19.73325],[73.49772,19.73305],[73.49544,19.72984],[73.49185,19.72999],[73.48641,19.72924],[73.48566,19.72893],[73.48532,19.7282],[73.48536,19.72637],[73.48625,19.72556],[73.4865,19.72255],[73.48872,19.72261],[73.49042,19.72178],[73.49163,19.72044],[73.49325,19.72055],[73.49436,19.71753],[73.4954,19.71673],[73.4977,19.71743],[73.50009,19.71657],[73.50113,19.71484],[73.50253,19.71484],[73.51327,19.70928],[73.51345,19.70954],[73.51907,19.70711],[73.51953,19.70747],[73.51733,19.70327],[73.51744,19.70205],[73.51589,19.7004],[73.51508,19.69861],[73.51842,19.69827],[73.52388,19.69634],[73.52904,19.69767],[73.52821,19.69238],[73.52875,19.68913],[73.53429,19.67727],[73.53509,19.67451],[73.54296,19.66744],[73.54436,19.66486],[73.54342,19.66333],[73.54462,19.6579],[73.54865,19.6549],[73.54911,19.65317],[73.55072,19.65271],[73.5539,19.64768],[73.55462,19.64859],[73.55624,19.64862],[73.56038,19.64438],[73.56135,19.64063],[73.56107,19.63675],[73.56148,19.63494],[73.56259,19.63314],[73.56433,19.62624],[73.5639,19.61931],[73.56429,19.61859],[73.56659,19.61826],[73.56987,19.61637],[73.57183,19.61966],[73.5745,19.61852],[73.57658,19.61852],[73.57835,19.6176],[73.57912,19.61472],[73.58232,19.61308],[73.58322,19.61076],[73.5825,19.60886],[73.57615,19.6024],[73.58063,19.60248],[73.58379,19.60492],[73.58477,19.60663],[73.5874,19.60602],[73.58795,19.60517],[73.59125,19.60297],[73.5921,19.60174],[73.59283,19.60149],[73.59415,19.60247],[73.59853,19.59908],[73.60583,19.59636],[73.60713,19.59499],[73.60881,19.59555],[73.61481,19.5955],[73.61663,19.59033],[73.61661,19.58612],[73.61804,19.58717],[73.6194,19.58589],[73.62133,19.58791],[73.63014,19.59171],[73.63126,19.59457],[73.63604,19.59431],[73.64242,19.58948],[73.6499,19.58951],[73.66533,19.58647],[73.66968,19.58982],[73.66995,19.58592],[73.67589,19.58658],[73.67906,19.58897],[73.68303,19.58943],[73.6868,19.5925],[73.69669,19.59131],[73.70385,19.59398],[73.70561,19.59593],[73.70719,19.59976],[73.70894,19.60148],[73.70878,19.60996],[73.7103,19.61261],[73.71309,19.61636],[73.71917,19.61884],[73.72048,19.61982],[73.72543,19.62116],[73.72742,19.62093],[73.7301,19.61734],[73.73349,19.61803],[73.73758,19.61787],[73.7388,19.61976],[73.74013,19.61967],[73.74028,19.62044],[73.7431,19.62239],[73.74395,19.62249],[73.74459,19.62344],[73.74739,19.62191],[73.7501,19.62177],[73.75217,19.62538],[73.76118,19.62893],[73.76326,19.62771],[73.76562,19.62875],[73.76759,19.62977],[73.76688,19.63167],[73.77621,19.6283],[73.77568,19.63196],[73.77739,19.63226],[73.77694,19.63465],[73.77797,19.63433],[73.77831,19.63507],[73.77626,19.63939],[73.77626,19.64042],[73.78421,19.63938],[73.78996,19.64225],[73.79288,19.64095],[73.7933,19.64136],[73.79318,19.64194],[73.78907,19.64541],[73.78287,19.64648],[73.77948,19.64954],[73.77806,19.65204],[73.7784,19.65265],[73.77897,19.65243],[73.78022,19.65515],[73.78121,19.65479],[73.78189,19.65964],[73.78541,19.65882],[73.78677,19.66038],[73.7884,19.66109],[73.78918,19.66237],[73.79065,19.66277],[73.78988,19.66501],[73.79151,19.66752],[73.79026,19.66753],[73.78979,19.66871],[73.791,19.66973],[73.7915,19.66932],[73.79124,19.67104],[73.79262,19.67076],[73.79263,19.6736],[73.7937,19.67302],[73.79458,19.67533],[73.79597,19.67575],[73.80032,19.67577],[73.7995,19.67712],[73.80158,19.67658],[73.803,19.67695],[73.80493,19.67624],[73.8061,19.67675],[73.80292,19.68165],[73.80132,19.68305],[73.79565,19.68413],[73.79375,19.68639],[73.79432,19.68802],[73.79638,19.68925],[73.80012,19.6879],[73.80336,19.68738],[73.80362,19.68839],[73.8052,19.68927],[73.80665,19.68447],[73.80832,19.68272],[73.80999,19.68187],[73.81083,19.6873],[73.81263,19.69002],[73.81515,19.6895],[73.81301,19.69138],[73.81448,19.69294],[73.8138,19.70043],[73.81633,19.70644],[73.81876,19.7092],[73.81876,19.71157],[73.81829,19.71191],[73.81953,19.71373],[73.82328,19.71593],[73.83064,19.71672],[73.83194,19.71769],[73.83561,19.71904],[73.83772,19.72032],[73.83952,19.72317],[73.83951,19.72858],[73.84052,19.73169],[73.83944,19.73582],[73.838,19.73738],[73.83687,19.74022],[73.83833,19.74077],[73.8355,19.74216],[73.83207,19.74206],[73.82599,19.74388],[73.82803,19.74478],[73.83212,19.74857],[73.83256,19.74986],[73.83272,19.75423],[73.8342,19.75681],[73.83375,19.75986],[73.83463,19.75999],[73.83247,19.76838],[73.83094,19.7695],[73.83018,19.76916],[73.82909,19.77002],[73.82884,19.77139],[73.83096,19.77174],[73.8315,19.77144],[73.83309,19.7753],[73.83468,19.77637],[73.83501,19.779],[73.83647,19.7803],[73.83629,19.78183],[73.8341,19.78387],[73.83211,19.78424],[73.83014,19.78375],[73.82595,19.78579],[73.82417,19.7872],[73.82258,19.78745],[73.82176,19.78827],[73.80878,19.79396],[73.80976,19.79539],[73.80972,19.79723],[73.80674,19.7987],[73.8065,19.7994],[73.80767,19.80367],[73.80586,19.8061],[73.8057,19.80707],[73.80644,19.80845],[73.80812,19.80894],[73.81059,19.80885],[73.81194,19.80959],[73.81258,19.81131],[73.81152,19.81252],[73.81123,19.81411],[73.81277,19.81628],[73.81071,19.81844],[73.80864,19.82293],[73.80477,19.82632],[73.80084,19.82665],[73.79643,19.82551],[73.79342,19.82245],[73.79157,19.81946],[73.78572,19.81601],[73.78088,19.8092],[73.77941,19.8082],[73.77678,19.8052],[73.77478,19.80421],[73.77135,19.80424],[73.76111,19.81148],[73.76006,19.81378],[73.75902,19.81477],[73.75584,19.81536],[73.75405,19.81514],[73.75402,19.81624],[73.75343,19.81633],[73.75317,19.81726],[73.75354,19.81851],[73.75276,19.81919],[73.75182,19.82142],[73.75222,19.82209],[73.75197,19.8232],[73.75122,19.82321],[73.75138,19.82597],[73.75178,19.82698],[73.75257,19.82706],[73.75216,19.82827],[73.75241,19.83249],[73.75186,19.83252],[73.75147,19.83539],[73.75205,19.83682],[73.75316,19.83755],[73.75259,19.84378],[73.75329,19.84578],[73.75426,19.84529],[73.75515,19.84551],[73.75407,19.8467],[73.7535,19.85016],[73.74242,19.84414],[73.7315,19.84268],[73.73112,19.84187],[73.7271,19.83975],[73.72514,19.83823],[73.72521,19.83754],[73.72445,19.83734],[73.72403,19.83848],[73.7231,19.83841],[73.72199,19.84019],[73.7214,19.84401],[73.72045,19.84505],[73.72137,19.84686],[73.71969,19.84916],[73.7181,19.85333],[73.71687,19.85443],[73.71599,19.85652],[73.71284,19.85733],[73.70947,19.85753],[73.70405,19.86781],[73.70412,19.86938],[73.703,19.87175],[73.69889,19.87666],[73.69795,19.88044],[73.69838,19.88253],[73.69657,19.8856],[73.69732,19.88677],[73.69759,19.89055],[73.69095,19.88911],[73.68812,19.8891],[73.68448,19.88805],[73.68251,19.88664],[73.68186,19.88768],[73.68074,19.88765],[73.67706,19.89025],[73.67559,19.89284],[73.67,19.89354],[73.66346,19.89101],[73.66072,19.89164],[73.65963,19.88957],[73.65309,19.88547],[73.65016,19.88657],[73.64525,19.8848],[73.64307,19.8851],[73.64032,19.88407],[73.63715,19.88056],[73.63382,19.87897],[73.63133,19.88026],[73.62911,19.88058],[73.62808,19.88181],[73.62589,19.88261],[73.61978,19.88352]]]},"properties":{"id":"boundary_r10345695","type":"admin_boundary","name":"Igatpuri Subdistrict","name_local":"इगतपुरी तालुका","category":"admin_level 6","source":"openstreetmap","source_id":"relation/10345695","updated_at":"2026-02-10T13:32:40Z","tags":{"name:en":"Igatpuri Subdistrict","name:mr":"इगतपुरी तालुका","wikipedia":"mr:इगतपुरी तालुका","wikidata":"Q2724597"}}},{"type":"Feature","geometry":{"type":"Polygon","coordinates":[[[73.57765,20.11198],[73.57668,20.11109],[73.57617,20.10736],[73.57518,20.10484],[73.57465,20.1048],[73.56939,20.09767],[73.56928,20.0965],[73.56747,20.09337],[73.56635,20.0921],[73.5656,20.09205],[73.56439,20.09106],[73.56293,20.08908],[73.56248,20.08969],[73.56247,20.08882],[73.56309,20.08816],[73.55929,20.08371],[73.55663,20.07678],[73.55707,20.07156],[73.55965,20.07077],[73.56555,20.0653],[73.57038,20.06394],[73.5717,20.06285],[73.57356,20.06326],[73.57497,20.06089],[73.57645,20.06024],[73.57569,20.05514],[73.57601,20.05441],[73.5734,20.04516],[73.57298,20.04519],[73.5719,20.03775],[73.57102,20.03639],[73.57099,20.03236],[73.5722,20.02571],[73.57628,20.02273],[73.57591,20.01723],[73.57643,20.01567],[73.57851,20.01253],[73.58136,20.01013],[73.58475,20.0061],[73.58475,20.0034],[73.58499,20.00379],[73.58629,20.00384],[73.58966,20.00332],[73.5919,20.00473],[73.59419,20.00422],[73.59551,19.9997],[73.59406,19.99745],[73.59474,19.99665],[73.59868,19.99727],[73.60022,19.99634],[73.60296,19.9966],[73.60487,19.99598],[73.60529,20.00045],[73.60604,20.00099],[73.60865,20.00129],[73.60977,19.99717],[73.6107,19.99608],[73.6084,19.98942],[73.60788,19.98359],[73.60711,19.98059],[73.61263,19.98056],[73.6129,19.97904],[73.61354,19.9783],[73.61632,19.97788],[73.61775,19.97673],[73.61876,19.97657],[73.62018,19.97654],[73.62403,19.97805],[73.62701,19.97777],[73.63239,19.97541],[73.63266,19.97465],[73.63408,19.97393],[73.63647,19.97413],[73.64296,19.96884],[73.64208,19.96299],[73.64109,19.95988],[73.63476,19.95194],[73.63368,19.9495],[73.63315,19.94238],[73.63189,19.93927],[73.63276,19.9368],[73.63171,19.93392],[73.62797,19.9296],[73.6279,19.92757],[73.62626,19.92475],[73.62684,19.92292],[73.62669,19.91958],[73.62802,19.91497],[73.62906,19.91376],[73.62998,19.91114],[73.62786,19.90939],[73.62627,19.90487],[73.62213,19.90342],[73.62208,19.90253],[73.62416,19.89913],[73.62455,19.8939],[73.62441,19.89278],[73.62297,19.89078],[73.61978,19.88352],[73.62589,19.88261],[73.62808,19.88181],[73.62911,19.88058],[73.63133,19.88026],[73.63382,19.87897],[73.63715,19.88056],[73.64032,19.88407],[73.64307,19.8851],[73.64525,19.8848],[73.65016,19.88657],[73.65309,19.88547],[73.65963,19.88957],[73.66072,19.89164],[73.66346,19.89101],[73.67,19.89354],[73.67559,19.89284],[73.67706,19.89025],[73.68074,19.88765],[73.68186,19.88768],[73.68251,19.88664],[73.68448,19.88805],[73.68812,19.8891],[73.69095,19.88911],[73.69759,19.89055],[73.69732,19.88677],[73.69657,19.8856],[73.69838,19.88253],[73.69795,19.88044],[73.69889,19.87666],[73.703,19.87175],[73.70412,19.86938],[73.70405,19.86781],[73.70947,19.85753],[73.71284,19.85733],[73.71599,19.85652],[73.71687,19.85443],[73.7181,19.85333],[73.71969,19.84916],[73.72137,19.84686],[73.72045,19.84505],[73.72137,19.84411],[73.72199,19.84019],[73.72289,19.83864],[73.72403,19.83848],[73.72473,19.83735],[73.72521,19.83754],[73.72514,19.83823],[73.72801,19.84033],[73.73112,19.84187],[73.7315,19.84268],[73.74242,19.84414],[73.7535,19.85016],[73.75407,19.8467],[73.75515,19.84551],[73.75426,19.84529],[73.75329,19.84578],[73.75259,19.84378],[73.75316,19.83755],[73.75205,19.83682],[73.75147,19.83539],[73.75186,19.83252],[73.75241,19.83249],[73.75216,19.82827],[73.75257,19.82706],[73.75178,19.82698],[73.75138,19.82597],[73.75122,19.82321],[73.75197,19.8232],[73.75222,19.82209],[73.75182,19.82142],[73.75276,19.81919],[73.75354,19.81851],[73.75317,19.81726],[73.75347,19.81625],[73.75405,19.81616],[73.7538,19.81547],[73.75902,19.81477],[73.76006,19.81378],[73.76111,19.81148],[73.76562,19.80864],[73.77022,19.80478],[73.77135,19.80424],[73.77478,19.80421],[73.77678,19.8052],[73.77941,19.8082],[73.78088,19.8092],[73.78572,19.81601],[73.79157,19.81946],[73.79342,19.82245],[73.79643,19.82551],[73.80084,19.82665],[73.80477,19.82632],[73.80864,19.82293],[73.81071,19.81844],[73.81277,19.81628],[73.81695,19.81701],[73.82229,19.8207],[73.82678,19.82221],[73.82943,19.82668],[73.82733,19.83008],[73.82789,19.8361],[73.83022,19.83953],[73.83245,19.8414],[73.83736,19.84304],[73.84004,19.84498],[73.84,19.84657],[73.83664,19.84938],[73.83498,19.85363],[73.84116,19.85495],[73.85363,19.85908],[73.85423,19.86149],[73.85949,19.86096],[73.86365,19.85981],[73.87037,19.8596],[73.86865,19.87206],[73.86897,19.87443],[73.86615,19.87593],[73.8664,19.87694],[73.8679,19.87798],[73.86898,19.88844],[73.87255,19.88884],[73.87398,19.89078],[73.87654,19.89247],[73.88913,19.88546],[73.89526,19.88395],[73.89509,19.88813],[73.89336,19.89266],[73.89293,19.89818],[73.89235,19.89961],[73.90233,19.901],[73.90693,19.90059],[73.91608,19.90145],[73.92162,19.89818],[73.91815,19.90785],[73.91734,19.90961],[73.91627,19.91052],[73.91315,19.91674],[73.91223,19.92323],[73.91088,19.92663],[73.91347,19.92851],[73.91837,19.92913],[73.92207,19.93079],[73.92756,19.93495],[73.93052,19.93565],[73.93127,19.93635],[73.93112,19.93556],[73.93442,19.93527],[73.93701,19.93249],[73.93692,19.93609],[73.93646,19.93713],[73.93171,19.9433],[73.93242,19.9495],[73.93645,19.94976],[73.9365,19.95163],[73.93715,19.95219],[73.93717,19.95335],[73.94104,19.95386],[73.93969,19.9621],[73.93938,19.97492],[73.93726,19.97503],[73.93538,19.9816],[73.94402,19.98184],[73.94326,19.98278],[73.9433,19.98443],[73.94483,19.987],[73.94549,19.98692],[73.94613,19.98915],[73.94548,19.99011],[73.94215,19.99198],[73.94191,19.99272],[73.94122,19.99299],[73.94244,19.99497],[73.94251,19.99719],[73.94299,19.99747],[73.93741,19.9988],[73.93311,19.99663],[73.93388,19.9996],[73.93487,20.00872],[73.93474,20.01254],[73.93644,20.02559],[73.94227,20.02391],[73.94612,20.03487],[73.94744,20.04524],[73.95534,20.04579],[73.9558,20.05407],[73.95331,20.06583],[73.94945,20.06616],[73.94343,20.06748],[73.93624,20.06737],[73.93525,20.06801],[73.93348,20.06827],[73.92767,20.06562],[73.92546,20.06348],[73.92347,20.06308],[73.91643,20.0641],[73.91296,20.06265],[73.9093,20.06343],[73.90251,20.06315],[73.89873,20.05892],[73.8945,20.05978],[73.89217,20.06098],[73.88206,20.06379],[73.87704,20.06451],[73.87518,20.06633],[73.87256,20.06755],[73.86986,20.07242],[73.86418,20.07236],[73.86425,20.07091],[73.86513,20.06919],[73.8641,20.06892],[73.8643,20.06861],[73.86343,20.06844],[73.86356,20.06878],[73.86297,20.06902],[73.86232,20.0682],[73.86086,20.06817],[73.86071,20.07004],[73.85976,20.06997],[73.86052,20.06915],[73.86011,20.06847],[73.85921,20.0686],[73.85953,20.06997],[73.85818,20.0698],[73.85754,20.07263],[73.85612,20.07386],[73.85274,20.07509],[73.8482,20.07538],[73.84435,20.07443],[73.84341,20.0721],[73.84299,20.06934],[73.83951,20.06657],[73.8327,20.06728],[73.83138,20.06524],[73.82553,20.06685],[73.8223,20.06867],[73.81946,20.07128],[73.81608,20.07241],[73.81644,20.07559],[73.81606,20.07724],[73.81424,20.07864],[73.81038,20.07853],[73.8049,20.08018],[73.79985,20.07903],[73.7982,20.07831],[73.79173,20.07272],[73.79117,20.07675],[73.79034,20.07932],[73.78928,20.07962],[73.78835,20.08331],[73.78624,20.08401],[73.78524,20.08548],[73.78437,20.08535],[73.78397,20.08471],[73.78391,20.08527],[73.78229,20.08542],[73.78093,20.08483],[73.77746,20.0852],[73.77723,20.08188],[73.77781,20.0812],[73.7773,20.08051],[73.77415,20.0813],[73.7709,20.07946],[73.76984,20.0807],[73.76524,20.08086],[73.7659,20.07975],[73.763,20.07778],[73.75575,20.08128],[73.7546,20.08096],[73.75457,20.08155],[73.7514,20.08186],[73.75202,20.08338],[73.75214,20.08642],[73.75164,20.08852],[73.75074,20.08983],[73.74792,20.09055],[73.74722,20.09242],[73.74575,20.09268],[73.74475,20.09377],[73.74127,20.09198],[73.74115,20.0904],[73.74005,20.09322],[73.74221,20.09568],[73.73555,20.09718],[73.73542,20.09952],[73.72738,20.09977],[73.72406,20.09927],[73.72066,20.09657],[73.71828,20.09344],[73.70856,20.09555],[73.70714,20.09652],[73.70281,20.09676],[73.70078,20.0956],[73.69736,20.09558],[73.69442,20.09284],[73.69346,20.09302],[73.69416,20.09451],[73.69386,20.0957],[73.69472,20.09778],[73.69441,20.10001],[73.69616,20.10384],[73.69617,20.10545],[73.69501,20.10595],[73.6945,20.10704],[73.69327,20.1073],[73.69172,20.1089],[73.68892,20.11012],[73.68607,20.11291],[73.68563,20.11437],[73.68747,20.11633],[73.68518,20.1184],[73.68648,20.1206],[73.68414,20.12421],[73.68449,20.12535],[73.68392,20.1259],[73.68267,20.12505],[73.68197,20.12643],[73.6799,20.12727],[73.67912,20.12926],[73.67492,20.12816],[73.67321,20.12284],[73.66916,20.11922],[73.66595,20.11745],[73.66281,20.11734],[73.65905,20.11828],[73.65845,20.11875],[73.65868,20.11981],[73.65646,20.1206],[73.65453,20.1204],[73.64888,20.12214],[73.64438,20.12442],[73.64363,20.12419],[73.641,20.12505],[73.63835,20.12886],[73.63252,20.12956],[73.63144,20.12906],[73.63095,20.12758],[73.62855,20.12746],[73.62549,20.12806],[73.62239,20.13154],[73.61845,20.13418],[73.61802,20.13633],[73.61455,20.13946],[73.60838,20.14023],[73.60485,20.13969],[73.60386,20.13552],[73.60201,20.13143],[73.59522,20.12304],[73.59399,20.11937],[73.58885,20.11217],[73.58698,20.11301],[73.58005,20.11174],[73.57765,20.11198]]]},"properties":{"id":"boundary_r10345696","type":"admin_boundary","name":"Nashik Subdistrict","name_local":"नाशिक तालुका","category":"admin_level 6","source":"openstreetmap","source_id":"relation/10345696","updated_at":"2026-02-10T12:38:55Z","tags":{"name:en":"Nashik Subdistrict","name:mr":"नाशिक तालुका","wikipedia":"mr:नाशिक तालुका","wikidata":"Q2763192"}}},{"type":"Feature","geometry":{"type":"Polygon","coordinates":[[[73.61978,19.88352],[73.62297,19.89078],[73.62441,19.89278],[73.62455,19.8939],[73.62416,19.89913],[73.62208,19.90253],[73.62213,19.90342],[73.62627,19.90487],[73.62786,19.90939],[73.62998,19.91114],[73.62906,19.91376],[73.62802,19.91497],[73.62669,19.91958],[73.62684,19.92292],[73.62626,19.92475],[73.6279,19.92757],[73.62797,19.9296],[73.63171,19.93392],[73.63276,19.9368],[73.63189,19.93927],[73.63315,19.94238],[73.63368,19.9495],[73.63476,19.95194],[73.64109,19.95988],[73.64208,19.96299],[73.64296,19.96884],[73.63647,19.97413],[73.63408,19.97393],[73.63266,19.97465],[73.63239,19.97541],[73.62701,19.97777],[73.62403,19.97805],[73.62018,19.97654],[73.61876,19.97657],[73.61775,19.97673],[73.61632,19.97788],[73.61354,19.9783],[73.6129,19.97904],[73.61263,19.98056],[73.60711,19.98059],[73.60788,19.98359],[73.6084,19.98942],[73.6107,19.99608],[73.60977,19.99717],[73.60865,20.00129],[73.60604,20.00099],[73.60529,20.00045],[73.60487,19.99598],[73.60296,19.9966],[73.60022,19.99634],[73.59868,19.99727],[73.59474,19.99665],[73.59406,19.99745],[73.59551,19.9997],[73.59419,20.00422],[73.5919,20.00473],[73.58966,20.00332],[73.58629,20.00384],[73.58499,20.00379],[73.58475,20.0034],[73.58475,20.0061],[73.58136,20.01013],[73.57851,20.01253],[73.57643,20.01567],[73.57591,20.01723],[73.57628,20.02273],[73.5722,20.02571],[73.57099,20.03236],[73.57102,20.03639],[73.5719,20.03775],[73.57298,20.04519],[73.5734,20.04516],[73.57601,20.05441],[73.57569,20.05514],[73.57645,20.06024],[73.57497,20.06089],[73.57356,20.06326],[73.5717,20.06285],[73.57038,20.06394],[73.56555,20.0653],[73.55965,20.07077],[73.55707,20.07156],[73.55663,20.07678],[73.55929,20.08371],[73.56309,20.08816],[73.56247,20.08882],[73.56248,20.08969],[73.56293,20.08908],[73.56439,20.09106],[73.5656,20.09205],[73.56635,20.0921],[73.56747,20.09337],[73.56928,20.0965],[73.56939,20.09767],[73.57465,20.1048],[73.57518,20.10484],[73.57617,20.10736],[73.57668,20.11109],[73.57825,20.11257],[73.57411,20.11422],[73.57019,20.11702],[73.57012,20.11931],[73.5574,20.11903],[73.55385,20.11954],[73.55344,20.11903],[73.55082,20.11909],[73.54697,20.11787],[73.54223,20.11783],[73.54037,20.11552],[73.53782,20.11518],[73.53264,20.11296],[73.52946,20.11256],[73.52748,20.11085],[73.52423,20.10975],[73.51862,20.11245],[73.51845,20.11936],[73.51665,20.12251],[73.51622,20.12488],[73.51495,20.12688],[73.51295,20.12658],[73.51246,20.1276],[73.50941,20.12786],[73.50664,20.12941],[73.50031,20.12821],[73.49797,20.12843],[73.49511,20.12976],[73.49084,20.13307],[73.49084,20.1341],[73.48159,20.13296],[73.47627,20.13137],[73.47423,20.13196],[73.46768,20.13055],[73.46716,20.1314],[73.4644,20.1325],[73.46057,20.13502],[73.45802,20.13526],[73.4573,20.13893],[73.45662,20.13913],[73.45514,20.14165],[73.45524,20.14431],[73.45573,20.14544],[73.45385,20.14751],[73.45062,20.14842],[73.44889,20.15008],[73.44931,20.15224],[73.45074,20.1545],[73.45433,20.15794],[73.45226,20.15975],[73.45205,20.16038],[73.45295,20.16116],[73.44904,20.17018],[73.44621,20.17503],[73.44371,20.17795],[73.43911,20.17674],[73.43387,20.17688],[73.42896,20.17784],[73.42625,20.17613],[73.42481,20.17647],[73.42391,20.17882],[73.41998,20.17958],[73.42093,20.18162],[73.42114,20.18358],[73.41928,20.18769],[73.41932,20.18916],[73.41852,20.18933],[73.41522,20.19258],[73.40775,20.19353],[73.40773,20.19573],[73.40545,20.19566],[73.39721,20.19806],[73.39542,20.1981],[73.39381,20.19693],[73.39148,20.19294],[73.38946,20.19262],[73.38816,20.19316],[73.38635,20.19583],[73.38565,20.20062],[73.38611,20.20223],[73.3865,20.20928],[73.38564,20.21065],[73.38365,20.21158],[73.38079,20.21176],[73.37917,20.21136],[73.3767,20.20588],[73.37552,20.2044],[73.37283,20.20409],[73.36865,20.20441],[73.36687,20.20369],[73.3666,20.20219],[73.36807,20.19823],[73.36765,20.1963],[73.36646,20.19542],[73.36267,20.19611],[73.3609,20.19769],[73.35524,20.19945],[73.35406,20.20077],[73.35415,20.20267],[73.35706,20.20437],[73.35912,20.20459],[73.36069,20.20572],[73.36166,20.20585],[73.36229,20.20666],[73.36174,20.21003],[73.35973,20.21248],[73.3576,20.21337],[73.35597,20.21247],[73.35212,20.2124],[73.34627,20.2093],[73.34502,20.20571],[73.34501,20.20059],[73.34445,20.19968],[73.34217,20.19951],[73.3407,20.20067],[73.33817,20.20029],[73.33718,20.20087],[73.33481,20.20104],[73.33187,20.20331],[73.32525,20.20639],[73.32258,20.20628],[73.31877,20.2047],[73.31713,20.20336],[73.31363,20.20277],[73.3099,20.20629],[73.30678,20.20839],[73.30347,20.2099],[73.3008,20.21025],[73.29747,20.20911],[73.29419,20.20612],[73.29223,20.20367],[73.29126,20.20064],[73.28908,20.19831],[73.28736,20.19794],[73.28332,20.19843],[73.28254,20.19457],[73.28148,20.19223],[73.28115,20.18964],[73.28095,20.17825],[73.28177,20.17702],[73.28107,20.17217],[73.28141,20.16729],[73.28037,20.15893],[73.28045,20.15319],[73.27972,20.15009],[73.27477,20.1468],[73.27029,20.14286],[73.26421,20.13957],[73.26092,20.13899],[73.25952,20.1381],[73.25398,20.1378],[73.25438,20.12762],[73.25019,20.12414],[73.24935,20.12245],[73.24827,20.12384],[73.24829,20.12219],[73.25153,20.11384],[73.25317,20.11232],[73.2554,20.11095],[73.26232,20.11107],[73.26753,20.1102],[73.26932,20.10833],[73.27013,20.10635],[73.27045,20.09983],[73.27361,20.08759],[73.27313,20.08356],[73.27254,20.08242],[73.27001,20.08161],[73.26485,20.08122],[73.26381,20.07964],[73.26276,20.07555],[73.26312,20.07452],[73.26652,20.07097],[73.26643,20.07044],[73.26615,20.06953],[73.26254,20.06683],[73.26016,20.06236],[73.27158,20.0527],[73.27711,20.04685],[73.28085,20.0443],[73.2811,20.04517],[73.28355,20.04565],[73.28399,20.04698],[73.28331,20.04865],[73.28364,20.05009],[73.28915,20.04918],[73.28948,20.04955],[73.28909,20.05176],[73.2869,20.05479],[73.28677,20.05576],[73.28754,20.05793],[73.28833,20.0588],[73.29207,20.06063],[73.29434,20.06069],[73.29763,20.05977],[73.29839,20.0586],[73.2988,20.05722],[73.29816,20.05322],[73.29846,20.05236],[73.30006,20.05153],[73.30166,20.05108],[73.30309,20.05145],[73.30803,20.05601],[73.30909,20.05639],[73.31122,20.05589],[73.31186,20.05517],[73.31137,20.0532],[73.31193,20.0531],[73.31397,20.04893],[73.31686,20.04831],[73.32245,20.04507],[73.32681,20.04366],[73.32964,20.04174],[73.33127,20.04166],[73.33117,20.04527],[73.33224,20.04557],[73.33801,20.04176],[73.34301,20.03983],[73.34625,20.03598],[73.34861,20.0366],[73.35222,20.03979],[73.35777,20.03989],[73.35801,20.0366],[73.36063,20.03533],[73.36219,20.03384],[73.36363,20.03364],[73.36457,20.02876],[73.36273,20.02255],[73.36631,20.01934],[73.37121,20.01884],[73.37451,20.02086],[73.38011,20.02092],[73.39217,20.01414],[73.3973,20.01692],[73.40661,20.01706],[73.40762,20.01658],[73.40805,20.01408],[73.41024,20.01372],[73.41208,20.01184],[73.41524,20.01225],[73.41532,20.00815],[73.41764,20.00318],[73.41726,20.00136],[73.41615,19.99963],[73.41938,19.99638],[73.4201,19.99431],[73.42263,19.99048],[73.42659,19.98597],[73.42962,19.98374],[73.43202,19.98229],[73.4412,19.98089],[73.44331,19.98139],[73.448,19.98397],[73.45028,19.98425],[73.45085,19.98485],[73.45177,19.982],[73.45041,19.97681],[73.45037,19.9703],[73.44909,19.96683],[73.45238,19.9628],[73.45619,19.95951],[73.44925,19.95396],[73.44282,19.95443],[73.43984,19.95617],[73.43916,19.95424],[73.44106,19.9474],[73.44109,19.94259],[73.43967,19.93814],[73.43924,19.93496],[73.43838,19.9339],[73.43648,19.92927],[73.42996,19.92088],[73.42266,19.91705],[73.42246,19.9142],[73.42668,19.9064],[73.42692,19.90275],[73.42563,19.90003],[73.42825,19.89392],[73.43221,19.89058],[73.43129,19.88332],[73.43268,19.88156],[73.43631,19.8727],[73.43047,19.87297],[73.42554,19.87234],[73.42345,19.87155],[73.4176,19.86798],[73.41663,19.86467],[73.41534,19.86243],[73.415,19.86037],[73.41833,19.85202],[73.41989,19.85032],[73.418,19.84913],[73.41846,19.84727],[73.41822,19.84586],[73.42071,19.83504],[73.42264,19.83206],[73.42601,19.83252],[73.42961,19.83377],[73.43508,19.83099],[73.4409,19.82699],[73.44227,19.82766],[73.44266,19.81513],[73.44184,19.81392],[73.43958,19.80738],[73.44366,19.80599],[73.44415,19.80495],[73.44275,19.79624],[73.44285,19.78657],[73.44438,19.78191],[73.44403,19.78128],[73.44781,19.76915],[73.44903,19.76765],[73.45079,19.76616],[73.45944,19.76505],[73.46124,19.76529],[73.46633,19.76359],[73.46987,19.76151],[73.47182,19.76188],[73.47912,19.75998],[73.48466,19.76049],[73.48635,19.76233],[73.49031,19.7633],[73.49661,19.76212],[73.49843,19.76115],[73.49861,19.76717],[73.49238,19.77257],[73.49015,19.77545],[73.48844,19.78145],[73.48912,19.78558],[73.49133,19.7887],[73.49233,19.79242],[73.49498,19.7944],[73.49567,19.79706],[73.49702,19.79794],[73.49698,19.79976],[73.49833,19.8017],[73.49848,19.80284],[73.49797,19.80384],[73.49814,19.80682],[73.50123,19.80751],[73.50251,19.80736],[73.50593,19.80878],[73.50724,19.81088],[73.51102,19.81113],[73.51578,19.81328],[73.51946,19.81603],[73.51938,19.81685],[73.52032,19.81766],[73.51977,19.81775],[73.51987,19.81871],[73.51778,19.82115],[73.51949,19.82299],[73.52145,19.82729],[73.52106,19.83121],[73.52248,19.83635],[73.51934,19.84157],[73.51973,19.84189],[73.51898,19.84287],[73.51881,19.84507],[73.5203,19.84666],[73.52588,19.85012],[73.5266,19.85124],[73.53275,19.85185],[73.53381,19.85115],[73.53551,19.85172],[73.538,19.85465],[73.53751,19.85561],[73.53867,19.85744],[73.53749,19.859],[73.53799,19.86011],[73.53676,19.86548],[73.53689,19.86859],[73.53642,19.87077],[73.53414,19.87483],[73.53396,19.87458],[73.53308,19.8752],[73.53316,19.87756],[73.53586,19.87801],[73.53514,19.87987],[73.53512,19.88144],[73.53656,19.88362],[73.54007,19.88342],[73.54516,19.88405],[73.54583,19.88296],[73.55335,19.87913],[73.55732,19.88483],[73.55974,19.88652],[73.56318,19.8877],[73.56705,19.8902],[73.57084,19.89126],[73.57752,19.89223],[73.58291,19.88913],[73.58483,19.88954],[73.58677,19.88839],[73.59013,19.88736],[73.59173,19.88829],[73.59378,19.88873],[73.60285,19.888],[73.60287,19.88843],[73.6086,19.88879],[73.61145,19.89024],[73.61257,19.88944],[73.61776,19.88306],[73.61978,19.88352]]]},"properties":{"id":"boundary_r10345697","type":"admin_boundary","name":"Trimbakeshwar Subdistrict","name_local":"त्र्यंबकेश्वर तालुका","category":"admin_level 6","source":"openstreetmap","source_id":"relation/10345697","updated_at":"2026-02-10T12:38:55Z","tags":{"name:en":"Trimbakeshwar Subdistrict","name:mr":"त्र्यंबकेश्वर तालुका","wikipedia":"mr:त्र्यंबकेश्वर तालुका","wikidata":"Q2760236"}}},{"type":"Feature","geometry":{"type":"Polygon","coordinates":[[[73.41347,20.3562],[73.41286,20.35417],[73.41366,20.35196],[73.4099,20.35071],[73.40929,20.35012],[73.4092,20.34863],[73.41326,20.3459],[73.41341,20.34498],[73.41243,20.34389],[73.4123,20.34307],[73.41324,20.33947],[73.41434,20.33741],[73.41436,20.33591],[73.41498,20.33539],[73.41698,20.33528],[73.41733,20.33482],[73.41688,20.33255],[73.41829,20.33064],[73.41836,20.32957],[73.41768,20.32836],[73.41493,20.32773],[73.41375,20.32567],[73.41561,20.32543],[73.4161,20.32485],[73.41647,20.32268],[73.41593,20.32138],[73.41672,20.31983],[73.41536,20.31736],[73.41807,20.31516],[73.42033,20.30744],[73.41981,20.30197],[73.42014,20.29711],[73.42332,20.29263],[73.42581,20.2855],[73.42633,20.28177],[73.42755,20.28041],[73.42752,20.27944],[73.42697,20.2777],[73.42584,20.2767],[73.42391,20.27609],[73.42321,20.27459],[73.41892,20.27542],[73.41841,20.27333],[73.41759,20.27326],[73.41571,20.27475],[73.41501,20.27471],[73.41379,20.27317],[73.41284,20.27082],[73.41325,20.26888],[73.41512,20.26853],[73.41576,20.26789],[73.41487,20.26612],[73.4126,20.2659],[73.41205,20.26521],[73.41342,20.26301],[73.41534,20.26174],[73.41534,20.2612],[73.41376,20.25943],[73.41574,20.25828],[73.41265,20.25608],[73.41123,20.25271],[73.41185,20.25204],[73.41465,20.25143],[73.41506,20.25077],[73.41519,20.24755],[73.41298,20.24412],[73.41309,20.24355],[73.41369,20.24316],[73.41748,20.24299],[73.41808,20.24214],[73.4148,20.23978],[73.41151,20.23861],[73.41136,20.23813],[73.41182,20.2373],[73.41515,20.23557],[73.41512,20.23504],[73.41324,20.23368],[73.41262,20.23255],[73.41354,20.22945],[73.4139,20.22524],[73.41448,20.22417],[73.41632,20.22447],[73.41744,20.22388],[73.41869,20.22167],[73.41761,20.21867],[73.41757,20.21524],[73.41635,20.21318],[73.41678,20.21275],[73.41891,20.21268],[73.42051,20.21179],[73.42079,20.21068],[73.42027,20.20837],[73.42123,20.2064],[73.41865,20.20235],[73.417,20.19856],[73.40773,20.19573],[73.40775,20.19353],[73.41522,20.19258],[73.41852,20.18933],[73.41932,20.18916],[73.41928,20.18769],[73.42114,20.18358],[73.42093,20.18162],[73.41998,20.17958],[73.42391,20.17882],[73.42481,20.17647],[73.42625,20.17613],[73.42896,20.17784],[73.43387,20.17688],[73.43911,20.17674],[73.44371,20.17795],[73.44621,20.17503],[73.44904,20.17018],[73.45295,20.16116],[73.45205,20.16038],[73.45226,20.15975],[73.45433,20.15794],[73.45074,20.1545],[73.44931,20.15224],[73.44889,20.15008],[73.45062,20.14842],[73.45385,20.14751],[73.45573,20.14544],[73.45524,20.14431],[73.45514,20.14165],[73.45662,20.13913],[73.4573,20.13893],[73.45802,20.13526],[73.46057,20.13502],[73.4644,20.1325],[73.46716,20.1314],[73.46768,20.13055],[73.47423,20.13196],[73.47627,20.13137],[73.48159,20.13296],[73.49084,20.1341],[73.49084,20.13307],[73.49511,20.12976],[73.49797,20.12843],[73.50031,20.12821],[73.50664,20.12941],[73.50941,20.12786],[73.51246,20.1276],[73.51295,20.12658],[73.51495,20.12688],[73.51622,20.12488],[73.51665,20.12251],[73.51845,20.11936],[73.51862,20.11245],[73.52423,20.10975],[73.52748,20.11085],[73.52946,20.11256],[73.53264,20.11296],[73.53782,20.11518],[73.54037,20.11552],[73.54223,20.11783],[73.54697,20.11787],[73.55082,20.11909],[73.55344,20.11903],[73.55385,20.11954],[73.5574,20.11903],[73.57012,20.11931],[73.57019,20.11702],[73.57411,20.11422],[73.57825,20.11257],[73.57765,20.11198],[73.58005,20.11174],[73.58698,20.11301],[73.58885,20.11217],[73.59399,20.11937],[73.59522,20.12304],[73.60201,20.13143],[73.60386,20.13552],[73.60485,20.13969],[73.60459,20.14091],[73.60217,20.14304],[73.6009,20.14708],[73.60057,20.1517],[73.60184,20.15518],[73.6051,20.16228],[73.60744,20.16301],[73.6076,20.1666],[73.6102,20.17096],[73.61022,20.17238],[73.61149,20.17481],[73.61867,20.17609],[73.62109,20.17794],[73.62112,20.17916],[73.62308,20.18024],[73.62565,20.17948],[73.62555,20.18519],[73.62404,20.18789],[73.62516,20.19045],[73.62529,20.19209],[73.62226,20.20063],[73.62312,20.20586],[73.62267,20.20979],[73.62299,20.21267],[73.622,20.214],[73.62257,20.21668],[73.62177,20.21978],[73.62213,20.22282],[73.618,20.23524],[73.61734,20.23938],[73.61634,20.24044],[73.61526,20.24396],[73.61508,20.24629],[73.61367,20.24893],[73.6113,20.25776],[73.60793,20.25662],[73.60779,20.25889],[73.60677,20.2606],[73.61029,20.26088],[73.60903,20.26437],[73.60921,20.26741],[73.60804,20.27141],[73.60503,20.27193],[73.60517,20.27313],[73.60335,20.27372],[73.60039,20.27371],[73.60054,20.276],[73.59998,20.27727],[73.60048,20.2793],[73.60124,20.2796],[73.60127,20.2802],[73.59945,20.2841],[73.59935,20.28618],[73.5975,20.29158],[73.59496,20.29572],[73.5948,20.30045],[73.59777,20.30652],[73.59917,20.3078],[73.60215,20.30824],[73.60763,20.31034],[73.60402,20.32041],[73.60475,20.32211],[73.60762,20.3225],[73.60521,20.32357],[73.60317,20.32925],[73.60161,20.32982],[73.60181,20.33033],[73.60093,20.3317],[73.60013,20.33228],[73.59153,20.34506],[73.59137,20.3469],[73.58887,20.3495],[73.58571,20.35186],[73.58466,20.35211],[73.58356,20.35337],[73.58247,20.35673],[73.58261,20.3588],[73.57733,20.36779],[73.57606,20.36858],[73.5761,20.36972],[73.57706,20.37099],[73.57677,20.37141],[73.57775,20.37377],[73.57638,20.37444],[73.57631,20.37506],[73.57505,20.37549],[73.57485,20.37822],[73.57602,20.37892],[73.57727,20.37897],[73.57779,20.37969],[73.5782,20.38246],[73.57804,20.3829],[73.57701,20.38307],[73.57604,20.38466],[73.57346,20.38661],[73.57228,20.38898],[73.57282,20.39407],[73.57097,20.39968],[73.56843,20.39967],[73.56603,20.40141],[73.56527,20.40141],[73.56433,20.39969],[73.56311,20.39962],[73.56147,20.40028],[73.56053,20.40119],[73.55886,20.40527],[73.55622,20.40621],[73.5562,20.40758],[73.55508,20.40822],[73.55195,20.40581],[73.54802,20.40521],[73.54596,20.40308],[73.5416,20.40661],[73.54071,20.40651],[73.54032,20.40179],[73.53639,20.3985],[73.53491,20.39791],[73.53395,20.39825],[73.53057,20.40259],[73.52692,20.40447],[73.52577,20.40169],[73.52743,20.39827],[73.52717,20.39764],[73.52614,20.39721],[73.52496,20.39762],[73.52048,20.40009],[73.5179,20.39913],[73.51761,20.39861],[73.51749,20.39738],[73.51837,20.39377],[73.51989,20.39244],[73.52373,20.39211],[73.52459,20.39159],[73.52448,20.3898],[73.52203,20.38676],[73.51917,20.38729],[73.51215,20.39468],[73.5122,20.39737],[73.51522,20.40128],[73.51545,20.40366],[73.5147,20.40428],[73.5131,20.40435],[73.51046,20.40344],[73.50539,20.39794],[73.4899,20.39381],[73.48715,20.39147],[73.48748,20.38982],[73.49193,20.38848],[73.4941,20.38651],[73.4912,20.38464],[73.48805,20.38487],[73.48423,20.38716],[73.4784,20.38974],[73.47612,20.38873],[73.4755,20.38664],[73.4772,20.38209],[73.47568,20.38128],[73.47338,20.3834],[73.46984,20.39026],[73.46748,20.39092],[73.46449,20.39038],[73.46208,20.38846],[73.4607,20.38806],[73.4573,20.38524],[73.45685,20.38429],[73.45686,20.38104],[73.45826,20.37398],[73.45786,20.37311],[73.45681,20.37286],[73.4543,20.37375],[73.45305,20.37595],[73.45237,20.37899],[73.44906,20.38446],[73.4459,20.38606],[73.44229,20.38697],[73.44067,20.38591],[73.44033,20.38245],[73.44261,20.3777],[73.44238,20.37526],[73.44088,20.37318],[73.43736,20.3708],[73.43524,20.37018],[73.42591,20.3706],[73.41974,20.3725],[73.41697,20.37213],[73.41464,20.3711],[73.41369,20.36894],[73.41394,20.36792],[73.41761,20.36299],[73.41806,20.36195],[73.41803,20.35877],[73.41631,20.35641],[73.41347,20.3562]]]},"properties":{"id":"boundary_r10345698","type":"admin_boundary","name":"Peth Taluka","name_local":"पेठ तालुका","category":"admin_level 6","source":"openstreetmap","source_id":"relation/10345698","updated_at":"2025-12-16T18:09:53Z","tags":{"name:mr":"पेठ तालुका","wikipedia":"mr:पेठ तालुका","wikidata":"Q2764763"}}},{"type":"Feature","geometry":{"type":"Polygon","coordinates":[[[73.94966,20.37593],[73.94682,20.3771],[73.9428,20.37609],[73.93831,20.37595],[73.93072,20.37655],[73.92901,20.37487],[73.92525,20.37628],[73.91915,20.38629],[73.91513,20.38607],[73.90349,20.37956],[73.90153,20.38504],[73.90354,20.38683],[73.90278,20.38891],[73.90282,20.39425],[73.89889,20.39802],[73.89445,20.39981],[73.88877,20.40055],[73.89016,20.40177],[73.88779,20.40715],[73.87954,20.40973],[73.86938,20.40877],[73.86042,20.41569],[73.84276,20.4149],[73.83401,20.41942],[73.83092,20.42244],[73.82885,20.43002],[73.81778,20.43241],[73.8042,20.42766],[73.80093,20.428],[73.79504,20.43355],[73.79439,20.43505],[73.79451,20.43755],[73.79404,20.43939],[73.79335,20.43928],[73.79316,20.4397],[73.79344,20.44637],[73.79282,20.44728],[73.78969,20.44867],[73.78644,20.45212],[73.7851,20.45012],[73.78193,20.44912],[73.78169,20.44801],[73.78044,20.44713],[73.77886,20.44431],[73.77529,20.4431],[73.77396,20.43976],[73.76998,20.44038],[73.76794,20.43988],[73.76459,20.44016],[73.75663,20.43916],[73.75034,20.44086],[73.74794,20.44254],[73.74528,20.44159],[73.74472,20.44264],[73.73933,20.44536],[73.73819,20.44447],[73.73354,20.43824],[73.72627,20.43824],[73.72414,20.4401],[73.71967,20.44171],[73.71822,20.44125],[73.71538,20.44156],[73.71331,20.44278],[73.70908,20.44277],[73.70923,20.44208],[73.70755,20.44172],[73.70708,20.44253],[73.70419,20.44319],[73.70488,20.44421],[73.70374,20.444],[73.70135,20.4448],[73.69937,20.44418],[73.6972,20.44434],[73.69557,20.44382],[73.69088,20.4385],[73.68988,20.43639],[73.69018,20.43492],[73.68959,20.43396],[73.68418,20.43369],[73.68288,20.43486],[73.68137,20.43536],[73.68116,20.43353],[73.67871,20.43283],[73.67543,20.43457],[73.67418,20.4341],[73.67412,20.42889],[73.67276,20.42807],[73.67209,20.42805],[73.66947,20.42994],[73.66852,20.4298],[73.66655,20.42871],[73.65964,20.42636],[73.65739,20.42461],[73.65061,20.42382],[73.64562,20.42498],[73.64461,20.42568],[73.64266,20.42261],[73.6367,20.41829],[73.6287,20.41793],[73.62647,20.41725],[73.62143,20.41334],[73.62056,20.41429],[73.61599,20.41697],[73.61344,20.41616],[73.60877,20.4105],[73.6064,20.41115],[73.60328,20.41386],[73.6007,20.41415],[73.59921,20.41325],[73.59881,20.41036],[73.59642,20.40764],[73.59358,20.40712],[73.5913,20.40805],[73.59043,20.40637],[73.58851,20.40583],[73.58669,20.40368],[73.5851,20.40332],[73.58212,20.40573],[73.58065,20.40609],[73.57909,20.40603],[73.57343,20.40354],[73.57267,20.40282],[73.57253,20.40103],[73.57097,20.39968],[73.57282,20.39407],[73.57228,20.38898],[73.57346,20.38661],[73.57604,20.38466],[73.57701,20.38307],[73.57804,20.3829],[73.5782,20.38246],[73.57779,20.37969],[73.57727,20.37897],[73.57602,20.37892],[73.57485,20.37822],[73.57505,20.37549],[73.57631,20.37506],[73.57638,20.37444],[73.57775,20.37377],[73.57677,20.37141],[73.57706,20.37099],[73.5761,20.36972],[73.57606,20.36858],[73.57733,20.36779],[73.58261,20.3588],[73.58247,20.35673],[73.58356,20.35337],[73.58466,20.35211],[73.58571,20.35186],[73.58887,20.3495],[73.59137,20.3469],[73.59153,20.34506],[73.60013,20.33228],[73.60093,20.3317],[73.60181,20.33033],[73.60161,20.32982],[73.60317,20.32925],[73.60521,20.32357],[73.60762,20.3225],[73.60475,20.32211],[73.60402,20.32041],[73.60763,20.31034],[73.60215,20.30824],[73.59917,20.3078],[73.59777,20.30652],[73.5948,20.30045],[73.59496,20.29572],[73.5975,20.29158],[73.59935,20.28618],[73.59945,20.2841],[73.60127,20.2802],[73.60124,20.2796],[73.60048,20.2793],[73.59998,20.27727],[73.60054,20.276],[73.60039,20.27371],[73.60335,20.27372],[73.60517,20.27313],[73.60503,20.27193],[73.60804,20.27141],[73.60921,20.26741],[73.60903,20.26437],[73.61029,20.26088],[73.60677,20.2606],[73.60779,20.25889],[73.60793,20.25662],[73.6113,20.25776],[73.61367,20.24893],[73.61508,20.24629],[73.61526,20.24396],[73.61634,20.24044],[73.61734,20.23938],[73.618,20.23524],[73.62229,20.22186],[73.62177,20.21978],[73.62257,20.21668],[73.622,20.214],[73.62299,20.21267],[73.62267,20.20979],[73.62312,20.20586],[73.62226,20.20063],[73.62524,20.19265],[73.62516,20.19045],[73.62404,20.18789],[73.62555,20.18519],[73.62565,20.17948],[73.62308,20.18024],[73.62112,20.17916],[73.62109,20.17794],[73.61867,20.17609],[73.61149,20.17481],[73.61022,20.17238],[73.6102,20.17096],[73.6076,20.1666],[73.60744,20.16301],[73.6051,20.16228],[73.60074,20.15246],[73.6009,20.14708],[73.60217,20.14304],[73.60459,20.14091],[73.60485,20.13969],[73.60838,20.14023],[73.61455,20.13946],[73.61802,20.13633],[73.61845,20.13418],[73.62239,20.13154],[73.62549,20.12806],[73.62855,20.12746],[73.63095,20.12758],[73.63144,20.12906],[73.63252,20.12956],[73.63835,20.12886],[73.641,20.12505],[73.64363,20.12419],[73.64438,20.12442],[73.64888,20.12214],[73.65453,20.1204],[73.65646,20.1206],[73.65868,20.11981],[73.65845,20.11875],[73.65905,20.11828],[73.66281,20.11734],[73.66595,20.11745],[73.66916,20.11922],[73.67321,20.12284],[73.67492,20.12816],[73.67912,20.12926],[73.6799,20.12727],[73.68197,20.12643],[73.68267,20.12505],[73.68392,20.1259],[73.68449,20.12535],[73.68414,20.12421],[73.68648,20.1206],[73.68518,20.1184],[73.68747,20.11633],[73.68563,20.11437],[73.68607,20.11291],[73.68892,20.11012],[73.69172,20.1089],[73.69327,20.1073],[73.6945,20.10704],[73.69501,20.10595],[73.69617,20.10545],[73.69616,20.10384],[73.69441,20.10001],[73.69472,20.09778],[73.69386,20.0957],[73.69416,20.09451],[73.69356,20.09299],[73.69442,20.09284],[73.69736,20.09558],[73.70078,20.0956],[73.70281,20.09676],[73.70714,20.09652],[73.70856,20.09555],[73.71828,20.09344],[73.72066,20.09657],[73.72406,20.09927],[73.72738,20.09977],[73.73542,20.09952],[73.73555,20.09718],[73.74221,20.09568],[73.74005,20.09322],[73.74115,20.0904],[73.74127,20.09198],[73.74475,20.09377],[73.74575,20.09268],[73.74722,20.09242],[73.74792,20.09055],[73.75074,20.08983],[73.75164,20.08852],[73.75214,20.08642],[73.75202,20.08338],[73.7514,20.08186],[73.75457,20.08155],[73.7546,20.08096],[73.75575,20.08128],[73.763,20.07778],[73.7659,20.07975],[73.76524,20.08086],[73.76984,20.0807],[73.7709,20.07946],[73.77415,20.0813],[73.7773,20.08051],[73.77781,20.0812],[73.77723,20.08188],[73.77746,20.0852],[73.78093,20.08483],[73.78229,20.08542],[73.78391,20.08527],[73.78397,20.08471],[73.78437,20.08535],[73.78524,20.08548],[73.78624,20.08401],[73.78835,20.08331],[73.78928,20.07962],[73.79034,20.07932],[73.79117,20.07675],[73.79173,20.07272],[73.7982,20.07831],[73.79985,20.07903],[73.8049,20.08018],[73.81038,20.07853],[73.81424,20.07864],[73.81606,20.07724],[73.81644,20.07559],[73.81608,20.07241],[73.81946,20.07128],[73.8223,20.06867],[73.82553,20.06685],[73.83124,20.06525],[73.8327,20.06728],[73.83951,20.06657],[73.84299,20.06934],[73.84341,20.0721],[73.84435,20.07443],[73.8482,20.07538],[73.85274,20.07509],[73.85612,20.07386],[73.85754,20.07263],[73.85818,20.0698],[73.85953,20.06997],[73.85921,20.0686],[73.86011,20.06847],[73.86052,20.06915],[73.85976,20.06997],[73.86071,20.07004],[73.86086,20.06817],[73.86232,20.0682],[73.86297,20.06902],[73.86356,20.06878],[73.86343,20.06844],[73.8643,20.06861],[73.8641,20.06892],[73.86513,20.06919],[73.86425,20.07091],[73.86418,20.07236],[73.86986,20.07242],[73.87256,20.06755],[73.87518,20.06633],[73.87704,20.06451],[73.88206,20.06379],[73.89217,20.06098],[73.8945,20.05978],[73.89813,20.05904],[73.89919,20.05908],[73.90251,20.06315],[73.9093,20.06343],[73.91065,20.06307],[73.90986,20.07074],[73.90724,20.07116],[73.90405,20.07045],[73.90073,20.07149],[73.89712,20.07905],[73.89475,20.0828],[73.89831,20.08422],[73.90166,20.10602],[73.90161,20.10674],[73.89523,20.10863],[73.89141,20.1107],[73.89328,20.123],[73.9054,20.12181],[73.91101,20.12598],[73.91377,20.12738],[73.91907,20.12783],[73.91924,20.13026],[73.92196,20.13663],[73.92673,20.15392],[73.92788,20.15548],[73.93077,20.15423],[73.93465,20.15153],[73.93639,20.14935],[73.93776,20.14855],[73.94239,20.14995],[73.94667,20.14864],[73.94918,20.15901],[73.95165,20.17534],[73.95068,20.17982],[73.95106,20.1846],[73.95048,20.18913],[73.95085,20.19356],[73.95056,20.19556],[73.95105,20.19869],[73.95335,20.19871],[73.95377,20.20042],[73.95561,20.20001],[73.95803,20.20209],[73.95895,20.20121],[73.96103,20.2073],[73.95953,20.20897],[73.95974,20.21162],[73.96691,20.21164],[73.97365,20.21089],[73.97363,20.21283],[73.9729,20.21424],[73.98326,20.21433],[73.98599,20.23666],[73.9884,20.23747],[73.99497,20.23814],[73.99971,20.23982],[73.99838,20.24279],[73.99766,20.24642],[73.99775,20.2483],[73.999,20.2508],[73.99909,20.25213],[73.99936,20.25273],[74.00302,20.25511],[74.00417,20.25795],[74.007,20.26197],[74.00997,20.2634],[74.00655,20.26534],[74.00571,20.26838],[74.00411,20.2705],[74.00265,20.27105],[74.00231,20.27245],[73.99798,20.27497],[73.99387,20.27461],[73.99147,20.2726],[73.98894,20.27176],[73.98157,20.2718],[73.97995,20.27197],[73.97745,20.27327],[73.97335,20.27401],[73.96951,20.27377],[73.96475,20.28231],[73.96121,20.29299],[73.95591,20.29335],[73.95421,20.29068],[73.95326,20.29054],[73.95215,20.2913],[73.95138,20.28898],[73.94904,20.28873],[73.94909,20.28941],[73.94764,20.2912],[73.94749,20.29247],[73.94626,20.2943],[73.93649,20.2955],[73.93913,20.307],[73.9398,20.31369],[73.93898,20.31379],[73.93769,20.31678],[73.93747,20.31823],[73.93809,20.32264],[73.9426,20.32255],[73.94653,20.3236],[73.94813,20.32435],[73.94885,20.32576],[73.94845,20.33133],[73.94492,20.3345],[73.94602,20.3375],[73.94455,20.33977],[73.94287,20.34023],[73.94334,20.34085],[73.94145,20.34503],[73.94189,20.34729],[73.94109,20.34797],[73.94105,20.3486],[73.94163,20.35008],[73.94416,20.35213],[73.94379,20.3538],[73.94415,20.35511],[73.94314,20.35728],[73.94347,20.35923],[73.94478,20.36167],[73.94638,20.36268],[73.94664,20.3638],[73.94808,20.3658],[73.94966,20.37593]]]},"properties":{"id":"boundary_r10345699","type":"admin_boundary","name":"Dindori Taluka","name_local":"दिंडोरी तालुका","category":"admin_level 6","source":"openstreetmap","source_id":"relation/10345699","updated_at":"2025-12-16T18:09:53Z","tags":{"name:mr":"दिंडोरी तालुका","wikipedia":"mr:दिंडोरी तालुका","wikidata":"Q2759394"}}},{"type":"Feature","geometry":{"type":"Polygon","coordinates":[[[74.26689,20.15755],[74.2667,20.15869],[74.26865,20.15993],[74.26917,20.16118],[74.26848,20.1628],[74.25706,20.16281],[74.25474,20.16358],[74.24195,20.16529],[74.24301,20.16915],[74.24391,20.17892],[74.24321,20.18262],[74.21753,20.18374],[74.21593,20.18333],[74.21928,20.18102],[74.21971,20.17986],[74.19097,20.17537],[74.18784,20.18138],[74.18956,20.20522],[74.17648,20.20382],[74.16064,20.20329],[74.16009,20.20368],[74.15033,20.20178],[74.14804,20.20184],[74.14677,20.20237],[74.14877,20.2038],[74.14868,20.20531],[74.14779,20.20676],[74.14814,20.20824],[74.14626,20.20893],[74.1405,20.20945],[74.1323,20.21345],[74.12578,20.21346],[74.12073,20.21246],[74.11998,20.21186],[74.11746,20.21168],[74.11695,20.21761],[74.10963,20.22292],[74.10786,20.22398],[74.10718,20.22368],[74.10638,20.2259],[74.10565,20.23543],[74.10236,20.23865],[74.09845,20.24126],[74.096,20.2418],[74.09478,20.23964],[74.09375,20.23877],[74.0867,20.23522],[74.08654,20.23553],[74.08222,20.23556],[74.07971,20.22754],[74.0743,20.21679],[74.07015,20.21718],[74.06541,20.21808],[74.06567,20.21839],[74.06517,20.21846],[74.06465,20.21817],[74.05181,20.21975],[74.04253,20.21997],[74.03628,20.21925],[74.02831,20.22041],[74.02217,20.22059],[74.01989,20.22046],[74.02028,20.219],[74.01921,20.21829],[74.01789,20.21865],[74.01335,20.21517],[74.01221,20.21537],[74.01174,20.21646],[74.01063,20.21601],[74.00916,20.2162],[74.00936,20.21428],[74.00874,20.21339],[74.00181,20.2138],[74.00125,20.21159],[74.0006,20.21128],[73.98889,20.21394],[73.98005,20.21433],[73.9729,20.21424],[73.97363,20.21283],[73.97365,20.21089],[73.96691,20.21164],[73.95974,20.21162],[73.95953,20.20897],[73.96103,20.2073],[73.95895,20.20121],[73.95803,20.20209],[73.95561,20.20001],[73.95377,20.20042],[73.95335,20.19871],[73.95105,20.19869],[73.95056,20.19556],[73.95085,20.19356],[73.95048,20.18913],[73.95106,20.1846],[73.95068,20.17982],[73.95165,20.17534],[73.94918,20.15901],[73.94667,20.14864],[73.94239,20.14995],[73.93776,20.14855],[73.93639,20.14935],[73.93465,20.15153],[73.93077,20.15423],[73.92788,20.15548],[73.92673,20.15392],[73.92196,20.13663],[73.91924,20.13026],[73.91907,20.12783],[73.91377,20.12738],[73.91101,20.12598],[73.9054,20.12181],[73.89328,20.123],[73.89141,20.1107],[73.89523,20.10863],[73.90161,20.10674],[73.90166,20.10602],[73.89831,20.08422],[73.89475,20.0828],[73.89712,20.07905],[73.90073,20.07149],[73.90405,20.07045],[73.90724,20.07116],[73.90986,20.07074],[73.91065,20.06307],[73.91126,20.06276],[73.91296,20.06265],[73.91643,20.0641],[73.92347,20.06308],[73.92546,20.06348],[73.92767,20.06562],[73.93348,20.06827],[73.93525,20.06801],[73.93624,20.06737],[73.94343,20.06748],[73.94945,20.06616],[73.95331,20.06583],[73.9558,20.05407],[73.95534,20.04579],[73.94744,20.04524],[73.94612,20.03487],[73.94227,20.02391],[73.93644,20.02559],[73.93474,20.01254],[73.93487,20.00872],[73.934,20.00062],[73.93311,19.99663],[73.93741,19.9988],[73.94299,19.99747],[73.94251,19.99719],[73.94244,19.99497],[73.94122,19.99299],[73.94191,19.99272],[73.94215,19.99198],[73.94548,19.99011],[73.94614,19.98876],[73.94549,19.98692],[73.94483,19.987],[73.9433,19.98443],[73.94326,19.98278],[73.94402,19.98184],[73.93538,19.9816],[73.93726,19.97503],[73.94234,19.97467],[73.94516,19.97358],[73.95134,19.97503],[73.96089,19.97107],[73.96646,19.9705],[73.96923,19.971],[73.97476,19.9746],[73.97561,19.97199],[73.97476,19.97108],[73.97488,19.96967],[73.97793,19.96592],[73.97791,19.96506],[73.97915,19.96462],[73.97994,19.96219],[73.97949,19.96165],[73.9807,19.95986],[73.98423,19.96019],[73.98746,19.96097],[73.98743,19.96134],[73.99253,19.96022],[73.9961,19.95616],[73.99752,19.95193],[73.99876,19.95094],[73.99961,19.94678],[73.99931,19.94552],[73.99855,19.94492],[73.99507,19.94371],[73.99389,19.94163],[73.99494,19.9401],[73.99524,19.94052],[74.00312,19.94036],[74.00711,19.93933],[74.01391,19.9385],[74.01458,19.93977],[74.01553,19.9394],[74.01586,19.93807],[74.01696,19.93776],[74.01721,19.93683],[74.01814,19.93663],[74.01867,19.93595],[74.02143,19.93592],[74.02447,19.93463],[74.02738,19.93483],[74.02899,19.93373],[74.03217,19.93353],[74.03323,19.93034],[74.03585,19.92839],[74.04785,19.93006],[74.04882,19.93077],[74.05705,19.93294],[74.05577,19.93534],[74.05984,19.93628],[74.06705,19.93611],[74.0759,19.9342],[74.07779,19.94004],[74.0783,19.94009],[74.07975,19.94389],[74.08347,19.95564],[74.087,19.96343],[74.08884,19.96949],[74.10327,19.96465],[74.12992,19.95759],[74.13003,19.95526],[74.14011,19.95538],[74.15823,19.95377],[74.17653,19.95305],[74.17805,19.95708],[74.20294,19.95414],[74.20312,19.95126],[74.2027,19.95078],[74.20386,19.95068],[74.20604,19.94931],[74.20774,19.95059],[74.20982,19.95042],[74.21782,19.95232],[74.21999,19.95194],[74.22074,19.95446],[74.22437,19.9571],[74.22476,19.9573],[74.22734,19.95627],[74.22777,19.95701],[74.22644,19.9587],[74.22655,19.95928],[74.23118,19.96671],[74.23098,19.96836],[74.23576,19.96822],[74.23698,19.96725],[74.23937,19.96395],[74.2415,19.96295],[74.26068,19.96221],[74.26474,19.963],[74.26799,19.96295],[74.27282,19.96219],[74.28118,19.95722],[74.28394,19.96497],[74.28511,19.97216],[74.28548,19.98617],[74.28734,19.98559],[74.29178,19.98268],[74.29234,19.97978],[74.29448,19.97794],[74.2952,19.97632],[74.29931,19.97416],[74.29932,19.97198],[74.30112,19.97002],[74.30166,19.96845],[74.30318,19.96664],[74.30855,19.96826],[74.30911,19.97215],[74.31075,19.97426],[74.31163,19.97648],[74.31622,19.97862],[74.31691,19.9808],[74.31675,19.9844],[74.31613,19.9858],[74.31469,19.9863],[74.31225,19.98606],[74.31102,19.98685],[74.30925,19.98929],[74.30862,19.99316],[74.31023,19.99625],[74.31476,19.99758],[74.31525,19.99817],[74.31532,19.99936],[74.31399,20.00066],[74.31485,20.00291],[74.31457,20.00592],[74.31495,20.00682],[74.31754,20.00928],[74.31954,20.01344],[74.31879,20.01502],[74.31895,20.01602],[74.31259,20.01749],[74.30634,20.01725],[74.29363,20.01834],[74.27896,20.01872],[74.27903,20.02306],[74.27774,20.03501],[74.28434,20.03482],[74.30138,20.03233],[74.31191,20.03171],[74.31066,20.03253],[74.31061,20.03317],[74.31199,20.03551],[74.31185,20.03607],[74.30989,20.03749],[74.3073,20.04199],[74.30696,20.04377],[74.2867,20.04345],[74.27822,20.04397],[74.27934,20.05876],[74.28859,20.05857],[74.29658,20.05999],[74.29669,20.06287],[74.29452,20.06515],[74.29446,20.06707],[74.29489,20.06749],[74.32201,20.06891],[74.33055,20.07002],[74.32964,20.07838],[74.33006,20.07852],[74.33037,20.08396],[74.31123,20.08573],[74.30979,20.10099],[74.29232,20.10116],[74.29014,20.10072],[74.2903,20.10369],[74.2929,20.10672],[74.29444,20.1077],[74.29626,20.11011],[74.29753,20.11271],[74.29767,20.11422],[74.30038,20.11433],[74.30093,20.11478],[74.30063,20.11579],[74.30117,20.11709],[74.30341,20.11866],[74.30372,20.11957],[74.30538,20.11996],[74.30596,20.12123],[74.30844,20.12209],[74.31065,20.12393],[74.30703,20.12433],[74.29956,20.12658],[74.30029,20.1312],[74.30108,20.13107],[74.30265,20.13592],[74.29181,20.13728],[74.2774,20.13695],[74.27289,20.1376],[74.27323,20.13984],[74.27277,20.14163],[74.2725,20.1421],[74.27082,20.14234],[74.27044,20.14299],[74.27413,20.14678],[74.27389,20.14828],[74.27071,20.1496],[74.26726,20.14737],[74.26544,20.14712],[74.26467,20.14789],[74.26522,20.15214],[74.26633,20.15387],[74.26689,20.15755]]]},"properties":{"id":"boundary_r10345700","type":"admin_boundary","name":"Niphad Taluka","name_local":"निफाड तालुका","category":"admin_level 6","source":"openstreetmap","source_id":"relation/10345700","updated_at":"2025-12-16T18:09:53Z","tags":{"name:mr":"निफाड तालुका","wikipedia":"mr:निफाड तालुका","wikidata":"Q2763229"}}}]}