{"type":"FeatureCollection","features":[{"type":"Feature","geometry":{"type":"Point","coordinates":[73.83195,19.91839]},"properties":{"id":"locality_n245686499","type":"locality","name":"Deolali","name_local":"देवळाली","category":"suburb","source":"openstreetmap","source_id":"node/245686499","updated_at":"2026-02-10T13:17:45Z","tags":{"name:en":"Deolali","name:mr":"देवळाली","wikipedia":"en:Deolali","wikidata":"Q958334","population":"10000"}}},{"type":"Feature","geometry":{"type":"Point","coordinates":[73.79024,20.01125]},"properties":{"id":"city_n245686763","type":"city","name":"Nashik","name_local":"नाशिक","category":"city","source":"openstreetmap","source_id":"node/245686763","updated_at":"2025-08-08T17:12:52Z","tags":{"name:en":"Nashik","name:mr":"नाशिक","wikipedia":"mr:नाशिक","wikidata":"Q200235","population":"1486000"}}},{"type":"Feature","geometry":{"type":"Point","coordinates":[73.53018,19.93539]},"properties":{"id":"locality_n514702107","type":"locality","name":"Trimbak","name_local":"त्र्यंबक","category":"town","source":"openstreetmap","source_id":"node/514702107","updated_at":"2023-12-22T19:33:02Z","tags":{"name:mr":"त्र्यंबक","alt_name":"Trambak;Tryambak","wikipedia":"en:Trimbak","wikidata":"Q2719283"}}},{"type":"Feature","geometry":{"type":"Point","coordinates":[73.50254,19.87883]},"properties":{"id":"locality_n658622647","type":"locality","name":"Samundi","name_local":null,"category":"hamlet","source":"openstreetmap","source_id":"node/658622647","updated_at":"2026-04-09T05:55:56Z","tags":{"ele":"645.890"}}},{"type":"Feature","geometry":{"type":"Point","coordinates":[73.52636,19.89606]},"properties":{"id":"locality_n658622648","type":"locality","name":"Kajali Village","name_local":null,"category":"hamlet","source":"openstreetmap","source_id":"node/658622648","updated_at":"2014-11-02T09:08:21Z","tags":{"ele":"674.250"}}},{"type":"Feature","geometry":{"type":"Point","coordinates":[73.92795,20.0943]},"properties":{"id":"locality_n659849286","type":"locality","name":"Ojhar","name_local":"ओझर","category":"town","source":"openstreetmap","source_id":"node/659849286","updated_at":"2022-05-24T16:34:53Z","tags":{"name:mr":"ओझर"}}},{"type":"Feature","geometry":{"type":"Point","coordinates":[73.74315,19.94999]},"properties":{"id":"locality_n660236320","type":"locality","name":"Ambad","name_local":"अंबड","category":"suburb","source":"openstreetmap","source_id":"node/660236320","updated_at":"2026-01-23T05:33:06Z","tags":{"name:en":"Ambad","name:mr":"अंबड"}}},{"type":"Feature","geometry":{"type":"Point","coordinates":[73.73765,20.00049]},"properties":{"id":"locality_n660236323","type":"locality","name":"Satpur","name_local":"सातपूर","category":"suburb","source":"openstreetmap","source_id":"node/660236323","updated_at":"2022-05-28T14:52:23Z","tags":{"name:mr":"सातपूर"}}},{"type":"Feature","geometry":{"type":"Point","coordinates":[73.73235,19.934]},"properties":{"id":"locality_n660334798","type":"locality","name":"Octroi Naka","name_local":null,"category":"locality","source":"openstreetmap","source_id":"node/660334798","updated_at":"2026-01-10T18:37:58Z","tags":{}}},{"type":"Feature","geometry":{"type":"Point","coordinates":[73.67528,19.86055]},"properties":{"id":"locality_n2269393582","type":"locality","name":"Wadiwarhe","name_local":null,"category":"village","source":"openstreetmap","source_id":"node/2269393582","updated_at":"2020-01-13T07:00:23Z","tags":{}}},{"type":"Feature","geometry":{"type":"Point","coordinates":[73.81549,19.99968]},"properties":{"id":"locality_n2532108497","type":"locality","name":"Kapila Godavari Sangam","name_local":null,"category":"locality","source":"openstreetmap","source_id":"node/2532108497","updated_at":"2026-01-28T06:46:25Z","tags":{}}},{"type":"Feature","geometry":{"type":"Point","coordinates":[73.77589,20.00719]},"properties":{"id":"locality_n2629584703","type":"locality","name":"Shivaji Nagar","name_local":null,"category":"neighbourhood","source":"openstreetmap","source_id":"node/2629584703","updated_at":"2014-01-20T10:21:02Z","tags":{}}},{"type":"Feature","geometry":{"type":"Point","coordinates":[73.79173,20.00501]},"properties":{"id":"locality_n2629584771","type":"locality","name":"Saraf Bazaar","name_local":null,"category":"neighbourhood","source":"openstreetmap","source_id":"node/2629584771","updated_at":"2014-01-20T10:21:02Z","tags":{}}},{"type":"Feature","geometry":{"type":"Point","coordinates":[73.79357,20.00668]},"properties":{"id":"locality_n2629584786","type":"locality","name":"Panchavati","name_local":null,"category":"suburb","source":"openstreetmap","source_id":"node/2629584786","updated_at":"2026-01-12T12:58:02Z","tags":{"website":"https://nashik.gov.in/en/tourist-place/panchvati/"}}},{"type":"Feature","geometry":{"type":"Point","coordinates":[73.76924,20.01041]},"properties":{"id":"locality_n2629584841","type":"locality","name":"Shreerang Nagar","name_local":null,"category":"neighbourhood","source":"openstreetmap","source_id":"node/2629584841","updated_at":"2014-01-20T10:21:03Z","tags":{}}},{"type":"Feature","geometry":{"type":"Point","coordinates":[73.82868,19.90208]},"properties":{"id":"locality_n2632398687","type":"locality","name":"Deolali Market","name_local":null,"category":"neighbourhood","source":"openstreetmap","source_id":"node/2632398687","updated_at":"2026-02-17T08:35:24Z","tags":{}}},{"type":"Feature","geometry":{"type":"Point","coordinates":[73.89187,20.14397]},"properties":{"id":"locality_n2678903678","type":"locality","name":"Mohadi","name_local":null,"category":"village","source":"openstreetmap","source_id":"node/2678903678","updated_at":"2018-04-17T22:26:52Z","tags":{}}},{"type":"Feature","geometry":{"type":"Point","coordinates":[73.81083,19.93115]},"properties":{"id":"locality_n3057748222","type":"locality","name":"Govindnagar","name_local":null,"category":"neighbourhood","source":"openstreetmap","source_id":"node/3057748222","updated_at":"2014-09-03T17:35:06Z","tags":{}}},{"type":"Feature","geometry":{"type":"Point","coordinates":[73.92133,19.99867]},"properties":{"id":"locality_n3062514231","type":"locality","name":"Lakhalgaon","name_local":null,"category":"village","source":"openstreetmap","source_id":"node/3062514231","updated_at":"2014-09-06T06:33:55Z","tags":{}}},{"type":"Feature","geometry":{"type":"Point","coordinates":[74.00908,20.0162]},"properties":{"id":"locality_n3062694614","type":"locality","name":"Saikheda","name_local":null,"category":"village","source":"openstreetmap","source_id":"node/3062694614","updated_at":"2014-09-06T10:03:51Z","tags":{}}},{"type":"Feature","geometry":{"type":"Point","coordinates":[73.99912,20.02331]},"properties":{"id":"locality_n3062694615","type":"locality","name":"Chandori","name_local":null,"category":"village","source":"openstreetmap","source_id":"node/3062694615","updated_at":"2014-09-06T10:03:51Z","tags":{}}},{"type":"Feature","geometry":{"type":"Point","coordinates":[73.98619,20.00343]},"properties":{"id":"locality_n3062694616","type":"locality","name":"Nagapur","name_local":null,"category":"village","source":"openstreetmap","source_id":"node/3062694616","updated_at":"2014-09-06T10:03:51Z","tags":{}}},{"type":"Feature","geometry":{"type":"Point","coordinates":[73.7408,19.90613]},"properties":{"id":"locality_n3226797966","type":"locality","name":"Gaulane","name_local":null,"category":"village","source":"openstreetmap","source_id":"node/3226797966","updated_at":"2014-12-09T17:41:14Z","tags":{}}},{"type":"Feature","geometry":{"type":"Point","coordinates":[74.03029,20.14152]},"properties":{"id":"locality_n3227967163","type":"locality","name":"Karsul","name_local":null,"category":"village","source":"openstreetmap","source_id":"node/3227967163","updated_at":"2014-12-10T11:44:40Z","tags":{}}},{"type":"Feature","geometry":{"type":"Point","coordinates":[73.94267,20.1482]},"properties":{"id":"locality_n3227967631","type":"locality","name":"Sakore","name_local":null,"category":"village","source":"openstreetmap","source_id":"node/3227967631","updated_at":"2014-12-10T11:44:44Z","tags":{}}},{"type":"Feature","geometry":{"type":"Point","coordinates":[73.81174,20.01328]},"properties":{"id":"locality_n3375118017","type":"locality","name":"Vijaynagar Colony","name_local":null,"category":"neighbourhood","source":"openstreetmap","source_id":"node/3375118017","updated_at":"2015-02-27T17:18:14Z","tags":{}}},{"type":"Feature","geometry":{"type":"Point","coordinates":[73.80601,20.01153]},"properties":{"id":"locality_n3375118033","type":"locality","name":"Om Nagar","name_local":null,"category":"neighbourhood","source":"openstreetmap","source_id":"node/3375118033","updated_at":"2015-07-08T10:30:45Z","tags":{}}},{"type":"Feature","geometry":{"type":"Point","coordinates":[73.80328,20.01274]},"properties":{"id":"locality_n3375118036","type":"locality","name":"Apla Maharashtra Colony","name_local":null,"category":"neighbourhood","source":"openstreetmap","source_id":"node/3375118036","updated_at":"2015-02-27T17:18:14Z","tags":{}}},{"type":"Feature","geometry":{"type":"Point","coordinates":[73.68887,19.96778]},"properties":{"id":"locality_n3382890295","type":"locality","name":"Belgaon Dhaga","name_local":null,"category":"village","source":"openstreetmap","source_id":"node/3382890295","updated_at":"2015-03-04T14:25:17Z","tags":{}}},{"type":"Feature","geometry":{"type":"Point","coordinates":[73.89944,19.99639]},"properties":{"id":"locality_n3635085744","type":"locality","name":"Shilapur","name_local":null,"category":"village","source":"openstreetmap","source_id":"node/3635085744","updated_at":"2015-07-05T10:17:51Z","tags":{}}},{"type":"Feature","geometry":{"type":"Point","coordinates":[73.9225,20]},"properties":{"id":"locality_n3635085746","type":"locality","name":"Lakhalgaon","name_local":null,"category":"village","source":"openstreetmap","source_id":"node/3635085746","updated_at":"2015-07-05T10:17:51Z","tags":{}}},{"type":"Feature","geometry":{"type":"Point","coordinates":[73.60899,20.10939]},"properties":{"id":"locality_n3791215380","type":"locality","name":"Ladachi","name_local":null,"category":"village","source":"openstreetmap","source_id":"node/3791215380","updated_at":"2015-10-18T10:45:18Z","tags":{}}},{"type":"Feature","geometry":{"type":"Point","coordinates":[73.70762,19.99251]},"properties":{"id":"locality_n4017614814","type":"locality","name":"Vivekanand Nagar","name_local":null,"category":"neighbourhood","source":"openstreetmap","source_id":"node/4017614814","updated_at":"2025-09-28T05:09:35Z","tags":{}}},{"type":"Feature","geometry":{"type":"Point","coordinates":[73.71688,19.9863]},"properties":{"id":"locality_n4017614844","type":"locality","name":"Shaneshwar Nagar","name_local":null,"category":"neighbourhood","source":"openstreetmap","source_id":"node/4017614844","updated_at":"2016-02-21T10:01:21Z","tags":{}}},{"type":"Feature","geometry":{"type":"Point","coordinates":[73.72428,19.99058]},"properties":{"id":"locality_n4017614891","type":"locality","name":"Shivaji Garden","name_local":null,"category":"neighbourhood","source":"openstreetmap","source_id":"node/4017614891","updated_at":"2026-01-11T10:26:43Z","tags":{}}},{"type":"Feature","geometry":{"type":"Point","coordinates":[73.72568,19.98573]},"properties":{"id":"locality_n4017614949","type":"locality","name":"Khode Park","name_local":null,"category":"neighbourhood","source":"openstreetmap","source_id":"node/4017614949","updated_at":"2016-02-21T10:01:23Z","tags":{}}},{"type":"Feature","geometry":{"type":"Point","coordinates":[73.73179,19.99016]},"properties":{"id":"locality_n4017649617","type":"locality","name":"Satpur Gaon","name_local":null,"category":"neighbourhood","source":"openstreetmap","source_id":"node/4017649617","updated_at":"2016-02-21T10:46:17Z","tags":{}}},{"type":"Feature","geometry":{"type":"Point","coordinates":[73.71668,20.02999]},"properties":{"id":"locality_n4050236379","type":"locality","name":"Gangapur","name_local":null,"category":"village","source":"openstreetmap","source_id":"node/4050236379","updated_at":"2026-01-22T10:55:22Z","tags":{}}},{"type":"Feature","geometry":{"type":"Point","coordinates":[73.79249,20.00726]},"properties":{"id":"locality_n4115262090","type":"locality","name":"Ramkund","name_local":null,"category":"locality","source":"openstreetmap","source_id":"node/4115262090","updated_at":"2026-01-12T12:58:02Z","tags":{"website":"https://nashik.gov.in/en/tourist-place/ramkund-nashik/","opening_hours":"24/7","description":"Considered the spot at which Lord Rama bathed"}}},{"type":"Feature","geometry":{"type":"Point","coordinates":[73.75325,19.99602]},"properties":{"id":"locality_n5695770540","type":"locality","name":"Mahatma Nagar","name_local":null,"category":"neighbourhood","source":"openstreetmap","source_id":"node/5695770540","updated_at":"2018-06-17T05:09:28Z","tags":{}}},{"type":"Feature","geometry":{"type":"Point","coordinates":[73.82653,19.89012]},"properties":{"id":"locality_n6171526042","type":"locality","name":"Deolali Camp","name_local":"देवळाली कँप","category":"suburb","source":"openstreetmap","source_id":"node/6171526042","updated_at":"2026-02-16T11:46:33Z","tags":{"name:en":"Deolali Camp","name:mr":"देवळाली कँप","wikipedia":"en:Deolali transit camp","wikidata":"Q5259980"}}},{"type":"Feature","geometry":{"type":"Point","coordinates":[74.04515,20.07004]},"properties":{"id":"locality_n6395445092","type":"locality","name":"Pimpalas","name_local":null,"category":"village","source":"openstreetmap","source_id":"node/6395445092","updated_at":"2019-04-10T06:54:11Z","tags":{}}},{"type":"Feature","geometry":{"type":"Point","coordinates":[74.04043,20.03376]},"properties":{"id":"locality_n6395446086","type":"locality","name":"Shingave","name_local":null,"category":"village","source":"openstreetmap","source_id":"node/6395446086","updated_at":"2019-04-10T06:54:14Z","tags":{}}},{"type":"Feature","geometry":{"type":"Point","coordinates":[73.90945,19.89758]},"properties":{"id":"locality_n7127867247","type":"locality","name":"Chincholi","name_local":null,"category":"village","source":"openstreetmap","source_id":"node/7127867247","updated_at":"2020-01-13T08:13:49Z","tags":{}}},{"type":"Feature","geometry":{"type":"Point","coordinates":[73.89833,19.91677]},"properties":{"id":"locality_n7127867248","type":"locality","name":"Shinde","name_local":null,"category":"village","source":"openstreetmap","source_id":"node/7127867248","updated_at":"2020-01-13T08:13:49Z","tags":{}}},{"type":"Feature","geometry":{"type":"Point","coordinates":[73.75021,19.9741]},"properties":{"id":"locality_n7271067814","type":"locality","name":"Kamathwade","name_local":null,"category":"suburb","source":"openstreetmap","source_id":"node/7271067814","updated_at":"2026-01-22T11:01:46Z","tags":{}}},{"type":"Feature","geometry":{"type":"Point","coordinates":[73.75401,19.97305]},"properties":{"id":"locality_n7271067815","type":"locality","name":"Pawan Nagar","name_local":null,"category":"neighbourhood","source":"openstreetmap","source_id":"node/7271067815","updated_at":"2020-03-06T05:24:52Z","tags":{}}},{"type":"Feature","geometry":{"type":"Point","coordinates":[73.7469,19.96398]},"properties":{"id":"locality_n7271067816","type":"locality","name":"Ekdant Nagar","name_local":null,"category":"neighbourhood","source":"openstreetmap","source_id":"node/7271067816","updated_at":"2020-03-06T05:24:52Z","tags":{}}},{"type":"Feature","geometry":{"type":"Point","coordinates":[73.74499,19.96156]},"properties":{"id":"locality_n7271067817","type":"locality","name":"Ambad Gaon","name_local":null,"category":"neighbourhood","source":"openstreetmap","source_id":"node/7271067817","updated_at":"2020-03-06T05:24:52Z","tags":{}}},{"type":"Feature","geometry":{"type":"Point","coordinates":[73.75128,19.96176]},"properties":{"id":"locality_n7271067818","type":"locality","name":"Flora Town","name_local":null,"category":"neighbourhood","source":"openstreetmap","source_id":"node/7271067818","updated_at":"2020-03-06T05:24:52Z","tags":{}}},{"type":"Feature","geometry":{"type":"Point","coordinates":[73.74806,19.98311]},"properties":{"id":"locality_n7271067819","type":"locality","name":"Khutawad Nagar","name_local":null,"category":"neighbourhood","source":"openstreetmap","source_id":"node/7271067819","updated_at":"2020-03-06T05:24:52Z","tags":{}}},{"type":"Feature","geometry":{"type":"Point","coordinates":[73.52795,19.86106]},"properties":{"id":"locality_n7994733947","type":"locality","name":"Mastarwadi","name_local":null,"category":"village","source":"openstreetmap","source_id":"node/7994733947","updated_at":"2020-10-10T11:04:27Z","tags":{}}},{"type":"Feature","geometry":{"type":"Point","coordinates":[73.93364,19.9096]},"properties":{"id":"locality_n8163613649","type":"locality","name":"Moh","name_local":null,"category":"village","source":"openstreetmap","source_id":"node/8163613649","updated_at":"2020-11-25T07:58:43Z","tags":{}}},{"type":"Feature","geometry":{"type":"Point","coordinates":[73.9301,19.92487]},"properties":{"id":"locality_n8163629648","type":"locality","name":"Brahmanwade","name_local":null,"category":"village","source":"openstreetmap","source_id":"node/8163629648","updated_at":"2020-11-25T07:58:43Z","tags":{}}},{"type":"Feature","geometry":{"type":"Point","coordinates":[73.66117,19.96634]},"properties":{"id":"locality_n11400091815","type":"locality","name":"Mahiravni","name_local":null,"category":"village","source":"openstreetmap","source_id":"node/11400091815","updated_at":"2023-12-07T11:59:39Z","tags":{}}},{"type":"Feature","geometry":{"type":"Point","coordinates":[73.60295,19.90072]},"properties":{"id":"locality_n12464856137","type":"locality","name":"Bhokarwadi","name_local":null,"category":"hamlet","source":"openstreetmap","source_id":"node/12464856137","updated_at":"2025-05-30T11:36:08Z","tags":{}}},{"type":"Feature","geometry":{"type":"Point","coordinates":[73.60409,19.89709]},"properties":{"id":"locality_n12464883637","type":"locality","name":"Milanwadi","name_local":null,"category":"hamlet","source":"openstreetmap","source_id":"node/12464883637","updated_at":"2024-12-31T08:03:25Z","tags":{}}},{"type":"Feature","geometry":{"type":"Point","coordinates":[73.55274,19.89939]},"properties":{"id":"locality_n13249113646","type":"locality","name":"Pahine","name_local":null,"category":"village","source":"openstreetmap","source_id":"node/13249113646","updated_at":"2025-10-22T04:46:02Z","tags":{}}},{"type":"Feature","geometry":{"type":"Point","coordinates":[73.72808,19.96702]},"properties":{"id":"locality_n13446776792","type":"locality","name":"Chunchale","name_local":null,"category":"suburb","source":"openstreetmap","source_id":"node/13446776792","updated_at":"2026-01-10T18:56:02Z","tags":{}}},{"type":"Feature","geometry":{"type":"Point","coordinates":[73.76109,19.96127]},"properties":{"id":"locality_n13446868895","type":"locality","name":"Ashwin Nagar","name_local":null,"category":"neighbourhood","source":"openstreetmap","source_id":"node/13446868895","updated_at":"2026-01-22T10:55:22Z","tags":{}}},{"type":"Feature","geometry":{"type":"Point","coordinates":[73.77931,19.98334]},"properties":{"id":"locality_n13446879337","type":"locality","name":"Govind Nagar","name_local":null,"category":"suburb","source":"openstreetmap","source_id":"node/13446879337","updated_at":"2026-01-10T19:40:16Z","tags":{}}},{"type":"Feature","geometry":{"type":"Point","coordinates":[73.7696,19.97122]},"properties":{"id":"locality_n13446895430","type":"locality","name":"Adarsh Society","name_local":null,"category":"neighbourhood","source":"openstreetmap","source_id":"node/13446895430","updated_at":"2026-01-10T20:04:54Z","tags":{}}},{"type":"Feature","geometry":{"type":"Point","coordinates":[73.7545,19.96456]},"properties":{"id":"locality_n13446956816","type":"locality","name":"Uttam Nagar","name_local":null,"category":"neighbourhood","source":"openstreetmap","source_id":"node/13446956816","updated_at":"2026-01-22T10:55:22Z","tags":{}}},{"type":"Feature","geometry":{"type":"Point","coordinates":[73.77643,20.00393]},"properties":{"id":"locality_n13447309669","type":"locality","name":"Pandit Colony","name_local":null,"category":"suburb","source":"openstreetmap","source_id":"node/13447309669","updated_at":"2026-01-11T03:09:55Z","tags":{}}},{"type":"Feature","geometry":{"type":"Point","coordinates":[73.75646,20.00549]},"properties":{"id":"locality_n13447351783","type":"locality","name":"Parijat Nagar","name_local":null,"category":"suburb","source":"openstreetmap","source_id":"node/13447351783","updated_at":"2026-01-11T03:29:32Z","tags":{}}},{"type":"Feature","geometry":{"type":"Point","coordinates":[73.80567,19.98315]},"properties":{"id":"locality_n13447400892","type":"locality","name":"Bodhale Nagar","name_local":null,"category":"neighbourhood","source":"openstreetmap","source_id":"node/13447400892","updated_at":"2026-01-11T06:02:20Z","tags":{}}},{"type":"Feature","geometry":{"type":"Point","coordinates":[73.80809,19.97669]},"properties":{"id":"locality_n13447400893","type":"locality","name":"Tagore Nagar","name_local":null,"category":"neighbourhood","source":"openstreetmap","source_id":"node/13447400893","updated_at":"2026-01-11T06:02:20Z","tags":{}}},{"type":"Feature","geometry":{"type":"Point","coordinates":[73.81057,19.97779]},"properties":{"id":"locality_n13447400894","type":"locality","name":"Ambedkar Nagar","name_local":null,"category":"neighbourhood","source":"openstreetmap","source_id":"node/13447400894","updated_at":"2026-01-11T06:02:20Z","tags":{}}},{"type":"Feature","geometry":{"type":"Point","coordinates":[73.81379,19.97606]},"properties":{"id":"locality_n13447400895","type":"locality","name":"Gandhi Nagar","name_local":null,"category":"neighbourhood","source":"openstreetmap","source_id":"node/13447400895","updated_at":"2026-01-11T06:02:20Z","tags":{}}},{"type":"Feature","geometry":{"type":"Point","coordinates":[73.82186,19.97258]},"properties":{"id":"locality_n13447400896","type":"locality","name":"Upnagar","name_local":null,"category":"suburb","source":"openstreetmap","source_id":"node/13447400896","updated_at":"2026-01-11T06:02:20Z","tags":{}}},{"type":"Feature","geometry":{"type":"Point","coordinates":[73.83885,19.95048]},"properties":{"id":"locality_n13447487624","type":"locality","name":"Nashik Road","name_local":"नाशिक रोड","category":"suburb","source":"openstreetmap","source_id":"node/13447487624","updated_at":"2026-01-27T09:19:19Z","tags":{"name:en":"Nashik Road","name:mr":"नाशिक रोड","wikidata":"Q6966852"}}},{"type":"Feature","geometry":{"type":"Point","coordinates":[73.76969,20.00251]},"properties":{"id":"locality_n13447614045","type":"locality","name":"Canada Corner","name_local":null,"category":"suburb","source":"openstreetmap","source_id":"node/13447614045","updated_at":"2026-01-11T08:59:27Z","tags":{}}},{"type":"Feature","geometry":{"type":"Point","coordinates":[73.78681,20.00125]},"properties":{"id":"locality_n13447622459","type":"locality","name":"Shalimar","name_local":null,"category":"suburb","source":"openstreetmap","source_id":"node/13447622459","updated_at":"2026-01-11T08:53:35Z","tags":{}}},{"type":"Feature","geometry":{"type":"Point","coordinates":[73.78948,20.00185]},"properties":{"id":"locality_n13447622460","type":"locality","name":"Bhadrakali","name_local":null,"category":"neighbourhood","source":"openstreetmap","source_id":"node/13447622460","updated_at":"2026-01-11T08:53:35Z","tags":{}}},{"type":"Feature","geometry":{"type":"Point","coordinates":[73.68569,20.07298]},"properties":{"id":"locality_n13447690150","type":"locality","name":"Dugaon","name_local":null,"category":"village","source":"openstreetmap","source_id":"node/13447690150","updated_at":"2026-01-11T10:02:18Z","tags":{}}},{"type":"Feature","geometry":{"type":"Point","coordinates":[73.66123,20.07367]},"properties":{"id":"locality_n13447690151","type":"locality","name":"Girnare","name_local":null,"category":"village","source":"openstreetmap","source_id":"node/13447690151","updated_at":"2026-01-11T10:02:18Z","tags":{}}},{"type":"Feature","geometry":{"type":"Point","coordinates":[73.65864,20.14441]},"properties":{"id":"locality_n13447690177","type":"locality","name":"Kochargaon","name_local":null,"category":"village","source":"openstreetmap","source_id":"node/13447690177","updated_at":"2026-01-11T10:02:18Z","tags":{}}},{"type":"Feature","geometry":{"type":"Point","coordinates":[73.80265,19.99325]},"properties":{"id":"locality_n13447746724","type":"locality","name":"Dwarka","name_local":null,"category":"suburb","source":"openstreetmap","source_id":"node/13447746724","updated_at":"2026-01-11T10:26:42Z","tags":{}}},{"type":"Feature","geometry":{"type":"Point","coordinates":[73.76564,19.94997]},"properties":{"id":"locality_n13448712151","type":"locality","name":"Narhari Nagar","name_local":null,"category":"suburb","source":"openstreetmap","source_id":"node/13448712151","updated_at":"2026-01-11T19:23:41Z","tags":{}}},{"type":"Feature","geometry":{"type":"Point","coordinates":[73.77535,19.94172]},"properties":{"id":"locality_n13448712152","type":"locality","name":"Pathardi","name_local":null,"category":"suburb","source":"openstreetmap","source_id":"node/13448712152","updated_at":"2026-01-11T19:23:41Z","tags":{}}},{"type":"Feature","geometry":{"type":"Point","coordinates":[73.78122,19.97347]},"properties":{"id":"locality_n13448712160","type":"locality","name":"Indira Nagar","name_local":null,"category":"suburb","source":"openstreetmap","source_id":"node/13448712160","updated_at":"2026-01-11T19:23:41Z","tags":{}}},{"type":"Feature","geometry":{"type":"Point","coordinates":[73.76822,19.965]},"properties":{"id":"locality_n13448712161","type":"locality","name":"Rane Nagar","name_local":null,"category":"neighbourhood","source":"openstreetmap","source_id":"node/13448712161","updated_at":"2026-01-11T19:23:41Z","tags":{}}},{"type":"Feature","geometry":{"type":"Point","coordinates":[73.75987,19.96819]},"properties":{"id":"locality_n13448712162","type":"locality","name":"CIDCO","name_local":null,"category":"suburb","source":"openstreetmap","source_id":"node/13448712162","updated_at":"2026-01-22T10:55:22Z","tags":{"alt_name":"Naya Nashik"}}},{"type":"Feature","geometry":{"type":"Point","coordinates":[73.7536,20.01656]},"properties":{"id":"locality_n13450167973","type":"locality","name":"Veer Savarkar Nagar","name_local":null,"category":"suburb","source":"openstreetmap","source_id":"node/13450167973","updated_at":"2026-01-12T12:58:00Z","tags":{}}},{"type":"Feature","geometry":{"type":"Point","coordinates":[73.79207,20.00677]},"properties":{"id":"locality_n13474311259","type":"locality","name":"Gangaghat","name_local":null,"category":"locality","source":"openstreetmap","source_id":"node/13474311259","updated_at":"2026-01-21T17:24:24Z","tags":{}}},{"type":"Feature","geometry":{"type":"Point","coordinates":[73.76298,19.97304]},"properties":{"id":"locality_n13475543499","type":"locality","name":"Laxmi Nagar","name_local":null,"category":"neighbourhood","source":"openstreetmap","source_id":"node/13475543499","updated_at":"2026-01-22T06:38:55Z","tags":{}}},{"type":"Feature","geometry":{"type":"Point","coordinates":[73.83267,19.93854]},"properties":{"id":"locality_n13476187968","type":"locality","name":"Vihitgaon","name_local":null,"category":"suburb","source":"openstreetmap","source_id":"node/13476187968","updated_at":"2026-01-22T11:16:06Z","tags":{}}},{"type":"Feature","geometry":{"type":"Point","coordinates":[73.78242,19.92446]},"properties":{"id":"locality_n13476187969","type":"locality","name":"Dadhegaon","name_local":null,"category":"village","source":"openstreetmap","source_id":"node/13476187969","updated_at":"2026-01-22T11:16:06Z","tags":{}}},{"type":"Feature","geometry":{"type":"Point","coordinates":[73.79126,19.92829]},"properties":{"id":"locality_n13476187970","type":"locality","name":"Pimpalgaon Khamb","name_local":null,"category":"village","source":"openstreetmap","source_id":"node/13476187970","updated_at":"2026-01-22T11:16:06Z","tags":{}}},{"type":"Feature","geometry":{"type":"Point","coordinates":[73.81238,19.93511]},"properties":{"id":"locality_n13476187971","type":"locality","name":"Vadner","name_local":null,"category":"village","source":"openstreetmap","source_id":"node/13476187971","updated_at":"2026-01-22T11:16:06Z","tags":{}}},{"type":"Feature","geometry":{"type":"Point","coordinates":[73.71453,19.98952]},"properties":{"id":"locality_n13476206229","type":"locality","name":"Ashok Nagar","name_local":null,"category":"suburb","source":"openstreetmap","source_id":"node/13476206229","updated_at":"2026-01-22T10:55:21Z","tags":{}}},{"type":"Feature","geometry":{"type":"Point","coordinates":[73.73961,20.01342]},"properties":{"id":"locality_n13476206263","type":"locality","name":"Anandwali","name_local":null,"category":"suburb","source":"openstreetmap","source_id":"node/13476206263","updated_at":"2026-01-22T10:55:21Z","tags":{}}},{"type":"Feature","geometry":{"type":"Point","coordinates":[73.75911,19.96649]},"properties":{"id":"locality_n13476206264","type":"locality","name":"Morwadi Gaothan","name_local":null,"category":"neighbourhood","source":"openstreetmap","source_id":"node/13476206264","updated_at":"2026-01-22T10:55:21Z","tags":{}}},{"type":"Feature","geometry":{"type":"Point","coordinates":[73.79399,19.96865]},"properties":{"id":"locality_n13476206273","type":"locality","name":"Wadala Gaon","name_local":null,"category":"neighbourhood","source":"openstreetmap","source_id":"node/13476206273","updated_at":"2026-01-22T10:55:21Z","tags":{}}},{"type":"Feature","geometry":{"type":"Point","coordinates":[73.80006,19.97051]},"properties":{"id":"locality_n13476206274","type":"locality","name":"Wadala","name_local":null,"category":"suburb","source":"openstreetmap","source_id":"node/13476206274","updated_at":"2026-01-22T10:55:21Z","tags":{}}},{"type":"Feature","geometry":{"type":"Point","coordinates":[73.80495,20.04634]},"properties":{"id":"locality_n13476212114","type":"locality","name":"Mhasrul","name_local":null,"category":"suburb","source":"openstreetmap","source_id":"node/13476212114","updated_at":"2026-01-22T11:00:18Z","tags":{}}},{"type":"Feature","geometry":{"type":"Point","coordinates":[73.77521,20.04622]},"properties":{"id":"locality_n13476212115","type":"locality","name":"Makhamalabad","name_local":null,"category":"suburb","source":"openstreetmap","source_id":"node/13476212115","updated_at":"2026-01-22T11:00:18Z","tags":{}}},{"type":"Feature","geometry":{"type":"Point","coordinates":[73.78623,20.00539]},"properties":{"id":"locality_n13476881644","type":"locality","name":"Vakil Wadi","name_local":null,"category":"neighbourhood","source":"openstreetmap","source_id":"node/13476881644","updated_at":"2026-01-22T16:05:38Z","tags":{}}},{"type":"Feature","geometry":{"type":"Point","coordinates":[73.51459,19.93293]},"properties":{"id":"locality_n13477736038","type":"locality","name":"Metghar","name_local":null,"category":"hamlet","source":"openstreetmap","source_id":"node/13477736038","updated_at":"2026-01-22T20:52:07Z","tags":{}}},{"type":"Feature","geometry":{"type":"Point","coordinates":[73.76602,19.96663]},"properties":{"id":"locality_n13481105235","type":"locality","name":"Gandhi Nagar","name_local":null,"category":"neighbourhood","source":"openstreetmap","source_id":"node/13481105235","updated_at":"2026-01-24T03:31:28Z","tags":{}}},{"type":"Feature","geometry":{"type":"Point","coordinates":[73.77539,19.97591]},"properties":{"id":"locality_n13481105239","type":"locality","name":"Lekha Nagar","name_local":null,"category":"neighbourhood","source":"openstreetmap","source_id":"node/13481105239","updated_at":"2026-01-24T03:31:28Z","tags":{}}},{"type":"Feature","geometry":{"type":"Point","coordinates":[73.79216,20.00819]},"properties":{"id":"locality_n13483798866","type":"locality","name":"Triveni Sangam","name_local":null,"category":"locality","source":"openstreetmap","source_id":"node/13483798866","updated_at":"2026-01-26T19:31:14Z","tags":{"alt_name":"Ganga Godavari Sangam"}}},{"type":"Feature","geometry":{"type":"Point","coordinates":[73.78926,20.0089]},"properties":{"id":"locality_n13484568724","type":"locality","name":"Gangawadi","name_local":null,"category":"neighbourhood","source":"openstreetmap","source_id":"node/13484568724","updated_at":"2026-01-25T19:00:27Z","tags":{}}},{"type":"Feature","geometry":{"type":"Point","coordinates":[73.82287,19.96384]},"properties":{"id":"locality_n13484727699","type":"locality","name":"Nehru Nagar","name_local":null,"category":"neighbourhood","source":"openstreetmap","source_id":"node/13484727699","updated_at":"2026-01-25T20:15:26Z","tags":{}}},{"type":"Feature","geometry":{"type":"Point","coordinates":[73.81509,19.85145]},"properties":{"id":"locality_n13540622220","type":"locality","name":"Lahvit","name_local":"लहवित","category":"village","source":"openstreetmap","source_id":"node/13540622220","updated_at":"2026-02-10T12:06:18Z","tags":{"name:en":"Lahvit","name:mr":"लहवित","alt_name":"Lahavit","population":"6826"}}},{"type":"Feature","geometry":{"type":"Point","coordinates":[73.73202,19.96436]},"properties":{"id":"locality_n13540932177","type":"locality","name":"Ramkrushna Nagar","name_local":"रामकृष्ण नगर","category":"neighbourhood","source":"openstreetmap","source_id":"node/13540932177","updated_at":"2026-02-10T14:26:04Z","tags":{"name:en":"Ramkrushna Nagar","name:mr":"रामकृष्ण नगर"}}},{"type":"Feature","geometry":{"type":"Point","coordinates":[73.72832,19.96993]},"properties":{"id":"locality_n13541184953","type":"locality","name":"Sanjeev Nagar","name_local":"संजीव नगर","category":"suburb","source":"openstreetmap","source_id":"node/13541184953","updated_at":"2026-02-10T16:14:54Z","tags":{"name:en":"Sanjeev Nagar","name:mr":"संजीव नगर"}}},{"type":"Feature","geometry":{"type":"Point","coordinates":[73.52707,19.9043]},"properties":{"id":"locality_n13649015385","type":"locality","name":"Methgar Killa","name_local":null,"category":"hamlet","source":"openstreetmap","source_id":"node/13649015385","updated_at":"2026-03-15T06:49:50Z","tags":{}}},{"type":"Feature","geometry":{"type":"Point","coordinates":[73.57728,19.86903]},"properties":{"id":"locality_n13649053063","type":"locality","name":"Muthaiwadi","name_local":null,"category":"village","source":"openstreetmap","source_id":"node/13649053063","updated_at":"2026-03-15T06:49:59Z","tags":{}}},{"type":"Feature","geometry":{"type":"Point","coordinates":[73.51867,19.87207]},"properties":{"id":"locality_n13717734554","type":"locality","name":"Karhole","name_local":null,"category":"village","source":"openstreetmap","source_id":"node/13717734554","updated_at":"2026-04-09T05:55:40Z","tags":{}}},{"type":"Feature","geometry":{"type":"Point","coordinates":[73.52843,19.96481]},"properties":{"id":"locality_n13717759771","type":"locality","name":"Pimplad","name_local":null,"category":"village","source":"openstreetmap","source_id":"node/13717759771","updated_at":"2026-04-09T05:55:48Z","tags":{}}},{"type":"Feature","geometry":{"type":"Point","coordinates":[73.64357,19.85092]},"properties":{"id":"locality_n13717767196","type":"locality","name":"Murambi","name_local":null,"category":"village","source":"openstreetmap","source_id":"node/13717767196","updated_at":"2026-04-09T05:55:39Z","tags":{}}},{"type":"Feature","geometry":{"type":"Point","coordinates":[73.54435,19.86374]},"properties":{"id":"locality_n13717772797","type":"locality","name":"Takalwadi","name_local":null,"category":"hamlet","source":"openstreetmap","source_id":"node/13717772797","updated_at":"2026-04-09T05:56:00Z","tags":{}}},{"type":"Feature","geometry":{"type":"Point","coordinates":[73.64449,19.89194]},"properties":{"id":"locality_n13717780052","type":"locality","name":"Dahigaon","name_local":null,"category":"village","source":"openstreetmap","source_id":"node/13717780052","updated_at":"2026-04-09T05:55:38Z","tags":{}}},{"type":"Feature","geometry":{"type":"Point","coordinates":[73.60427,19.87353]},"properties":{"id":"locality_n13717797430","type":"locality","name":"Sapariwadi","name_local":null,"category":"hamlet","source":"openstreetmap","source_id":"node/13717797430","updated_at":"2026-04-09T05:55:23Z","tags":{}}},{"type":"Feature","geometry":{"type":"Point","coordinates":[73.61269,19.90214]},"properties":{"id":"locality_n13717797432","type":"locality","name":"Pimpalwadi","name_local":null,"category":"hamlet","source":"openstreetmap","source_id":"node/13717797432","updated_at":"2026-04-09T05:55:59Z","tags":{}}},{"type":"Feature","geometry":{"type":"Point","coordinates":[73.54714,19.90197]},"properties":{"id":"locality_n13717800219","type":"locality","name":"Bhilmal","name_local":null,"category":"village","source":"openstreetmap","source_id":"node/13717800219","updated_at":"2026-04-09T05:55:30Z","tags":{}}},{"type":"Feature","geometry":{"type":"Point","coordinates":[73.67445,19.92113]},"properties":{"id":"locality_n13717800220","type":"locality","name":"Pimpalad","name_local":null,"category":"village","source":"openstreetmap","source_id":"node/13717800220","updated_at":"2026-04-09T05:55:43Z","tags":{}}},{"type":"Feature","geometry":{"type":"Point","coordinates":[73.59914,19.85424]},"properties":{"id":"locality_n13717802505","type":"locality","name":"Sirsata","name_local":null,"category":"village","source":"openstreetmap","source_id":"node/13717802505","updated_at":"2026-04-09T05:55:28Z","tags":{}}},{"type":"Feature","geometry":{"type":"Point","coordinates":[73.60864,19.9368]},"properties":{"id":"locality_n13717802507","type":"locality","name":"Wadholi","name_local":null,"category":"village","source":"openstreetmap","source_id":"node/13717802507","updated_at":"2026-04-09T05:55:41Z","tags":{}}},{"type":"Feature","geometry":{"type":"Point","coordinates":[73.58685,19.94602]},"properties":{"id":"locality_n13717802508","type":"locality","name":"Anjaneri","name_local":null,"category":"village","source":"openstreetmap","source_id":"node/13717802508","updated_at":"2026-04-09T05:55:43Z","tags":{}}},{"type":"Feature","geometry":{"type":"Point","coordinates":[73.64703,19.94777]},"properties":{"id":"locality_n13717802897","type":"locality","name":"Talegaon","name_local":null,"category":"village","source":"openstreetmap","source_id":"node/13717802897","updated_at":"2026-04-09T05:55:42Z","tags":{}}},{"type":"Feature","geometry":{"type":"Point","coordinates":[73.61156,19.85274]},"properties":{"id":"locality_n13717803231","type":"locality","name":"Modale","name_local":null,"category":"village","source":"openstreetmap","source_id":"node/13717803231","updated_at":"2026-04-09T05:55:38Z","tags":{}}},{"type":"Feature","geometry":{"type":"Point","coordinates":[73.6321,19.95484]},"properties":{"id":"locality_n13717803232","type":"locality","name":"Khambale","name_local":null,"category":"village","source":"openstreetmap","source_id":"node/13717803232","updated_at":"2026-04-09T05:55:42Z","tags":{}}},{"type":"Feature","geometry":{"type":"Point","coordinates":[73.53713,19.91742]},"properties":{"id":"locality_n13717803304","type":"locality","name":"Vinayak Met","name_local":null,"category":"hamlet","source":"openstreetmap","source_id":"node/13717803304","updated_at":"2026-04-09T05:55:55Z","tags":{}}},{"type":"Feature","geometry":{"type":"Point","coordinates":[73.57544,19.86456]},"properties":{"id":"locality_n13717805206","type":"locality","name":"Kushegaon","name_local":null,"category":"village","source":"openstreetmap","source_id":"node/13717805206","updated_at":"2026-04-09T05:55:43Z","tags":{}}},{"type":"Feature","geometry":{"type":"Point","coordinates":[73.51283,19.89527]},"properties":{"id":"locality_n13717805207","type":"locality","name":"Dhadoshi","name_local":null,"category":"hamlet","source":"openstreetmap","source_id":"node/13717805207","updated_at":"2026-04-09T05:55:55Z","tags":{}}},{"type":"Feature","geometry":{"type":"Point","coordinates":[73.50068,19.92239]},"properties":{"id":"locality_n13717805208","type":"locality","name":"Nimbunipada","name_local":null,"category":"hamlet","source":"openstreetmap","source_id":"node/13717805208","updated_at":"2026-04-09T05:55:59Z","tags":{}}},{"type":"Feature","geometry":{"type":"Point","coordinates":[73.55955,19.93406]},"properties":{"id":"locality_n13717806116","type":"locality","name":"Pegalwadi Khurd","name_local":null,"category":"hamlet","source":"openstreetmap","source_id":"node/13717806116","updated_at":"2026-04-09T05:55:54Z","tags":{}}},{"type":"Feature","geometry":{"type":"Point","coordinates":[73.64846,19.92371]},"properties":{"id":"locality_n13717806504","type":"locality","name":"Jategaon","name_local":null,"category":"village","source":"openstreetmap","source_id":"node/13717806504","updated_at":"2026-04-09T05:55:42Z","tags":{}}},{"type":"Feature","geometry":{"type":"Point","coordinates":[73.53641,19.90058]},"properties":{"id":"locality_n13717806915","type":"locality","name":"Khadakwadi","name_local":null,"category":"hamlet","source":"openstreetmap","source_id":"node/13717806915","updated_at":"2026-04-09T05:55:39Z","tags":{}}},{"type":"Feature","geometry":{"type":"Point","coordinates":[73.57735,19.86925]},"properties":{"id":"locality_n13717807309","type":"locality","name":"Muthaiwadi","name_local":null,"category":"hamlet","source":"openstreetmap","source_id":"node/13717807309","updated_at":"2026-04-09T05:55:23Z","tags":{}}},{"type":"Feature","geometry":{"type":"Point","coordinates":[73.55375,19.93931]},"properties":{"id":"locality_n13717807314","type":"locality","name":"Pegalwadi Budruk","name_local":null,"category":"village","source":"openstreetmap","source_id":"node/13717807314","updated_at":"2026-04-09T05:55:54Z","tags":{}}},{"type":"Feature","geometry":{"type":"Point","coordinates":[73.57766,19.85761]},"properties":{"id":"locality_n13717810012","type":"locality","name":"Dharacwadi","name_local":null,"category":"hamlet","source":"openstreetmap","source_id":"node/13717810012","updated_at":"2026-04-09T05:55:44Z","tags":{}}}]}