{"type":"FeatureCollection","features":[{"type":"Feature","geometry":{"type":"MultiPolygon","coordinates":[[[[73.78796,20.01074],[73.78792,20.01101],[73.78753,20.01107],[73.78713,20.01106],[73.78605,20.01081],[73.78578,20.01074],[73.78564,20.01064],[73.78564,20.01041],[73.78583,20.01042],[73.78635,20.01052],[73.78706,20.0106],[73.7875,20.01072],[73.78796,20.01074]]],[[[73.78829,20.01095],[73.78835,20.01071],[73.78875,20.01057],[73.78917,20.0104],[73.78952,20.01022],[73.79019,20.00983],[73.79053,20.00955],[73.79088,20.00919],[73.79094,20.00908],[73.79108,20.00923],[73.79058,20.00983],[73.7901,20.01019],[73.78992,20.01032],[73.78953,20.01047],[73.78958,20.01084],[73.78872,20.011],[73.78859,20.01097],[73.78846,20.01095],[73.78829,20.01095]]]]},"properties":{"id":"park_r20142523","type":"park","name":"Ramwadi Joggers' Park","name_local":null,"category":"park","source":"openstreetmap","source_id":"relation/20142523","updated_at":"2026-01-27T09:56:54Z","tags":{}}},{"type":"Feature","geometry":{"type":"Polygon","coordinates":[[[73.75492,19.95769],[73.75471,19.95711],[73.75477,19.95697],[73.75523,19.95656],[73.75558,19.95649],[73.75584,19.95682],[73.75574,19.95709],[73.75565,19.9573],[73.75552,19.95743],[73.75526,19.95756],[73.75492,19.95769]]]},"properties":{"id":"park_w112894253","type":"park","name":null,"name_local":null,"category":"park","source":"openstreetmap","source_id":"way/112894253","updated_at":"2011-05-12T21:42:43Z","tags":{}}},{"type":"Feature","geometry":{"type":"Polygon","coordinates":[[[73.79767,19.99654],[73.79762,19.99627],[73.7976,19.99593],[73.79759,19.99577],[73.79847,19.99565],[73.79853,19.9964],[73.79767,19.99654]]]},"properties":{"id":"park_w154690304","type":"park","name":"Baba Ambedkar Municipal Gardens","name_local":null,"category":"park","source":"openstreetmap","source_id":"way/154690304","updated_at":"2026-03-07T17:47:54Z","tags":{}}},{"type":"Feature","geometry":{"type":"Polygon","coordinates":[[[73.79965,19.99433],[73.79957,19.9944],[73.79948,19.99443],[73.79938,19.99444],[73.79928,19.99441],[73.7992,19.99435],[73.79915,19.99428],[73.79912,19.99418],[73.79913,19.99409],[73.79916,19.99401],[73.79923,19.99394],[73.79931,19.9939],[73.7994,19.99388],[73.79949,19.99389],[73.79957,19.99392],[73.79964,19.99398],[73.79969,19.99405],[73.79971,19.99412],[73.79971,19.99418],[73.7997,19.99425],[73.79965,19.99433]]]},"properties":{"id":"park_w230098374","type":"park","name":null,"name_local":null,"category":"park","source":"openstreetmap","source_id":"way/230098374","updated_at":"2023-08-30T10:01:00Z","tags":{}}},{"type":"Feature","geometry":{"type":"Polygon","coordinates":[[[73.78896,19.99621],[73.78894,19.99619],[73.78884,19.99609],[73.78912,19.99586],[73.78921,19.99597],[73.78928,19.99605],[73.78928,19.99626],[73.78923,19.99632],[73.78907,19.99628],[73.78896,19.99621]]]},"properties":{"id":"park_w230288671","type":"park","name":null,"name_local":null,"category":"park","source":"openstreetmap","source_id":"way/230288671","updated_at":"2013-07-18T05:18:19Z","tags":{}}},{"type":"Feature","geometry":{"type":"Polygon","coordinates":[[[73.78863,19.98657],[73.78843,19.98653],[73.78819,19.98648],[73.78817,19.98643],[73.78817,19.98609],[73.78845,19.98611],[73.78865,19.98612],[73.78863,19.98657]]]},"properties":{"id":"park_w230288896","type":"park","name":null,"name_local":null,"category":"park","source":"openstreetmap","source_id":"way/230288896","updated_at":"2013-07-18T05:25:27Z","tags":{}}},{"type":"Feature","geometry":{"type":"Polygon","coordinates":[[[73.76053,19.96782],[73.76075,19.96763],[73.76137,19.96732],[73.7623,19.96658],[73.76272,19.96676],[73.76309,19.9669],[73.76326,19.9669],[73.76436,19.96824],[73.76252,19.96973],[73.76053,19.96782]]]},"properties":{"id":"park_w230535426","type":"park","name":null,"name_local":null,"category":"park","source":"openstreetmap","source_id":"way/230535426","updated_at":"2026-01-10T19:40:17Z","tags":{}}},{"type":"Feature","geometry":{"type":"Polygon","coordinates":[[[73.75599,19.98582],[73.75572,19.98527],[73.75633,19.98501],[73.75659,19.98556],[73.75599,19.98582]]]},"properties":{"id":"park_w230535430","type":"park","name":"Sai Udyan","name_local":null,"category":"park","source":"openstreetmap","source_id":"way/230535430","updated_at":"2016-08-11T11:02:05Z","tags":{}}},{"type":"Feature","geometry":{"type":"Polygon","coordinates":[[[73.78557,19.97744],[73.78477,19.97766],[73.78453,19.97644],[73.78458,19.97643],[73.78458,19.97639],[73.78524,19.97626],[73.78557,19.97744]]]},"properties":{"id":"park_w230540876","type":"park","name":"City Garden","name_local":null,"category":"park","source":"openstreetmap","source_id":"way/230540876","updated_at":"2016-08-02T07:28:47Z","tags":{}}},{"type":"Feature","geometry":{"type":"Polygon","coordinates":[[[73.7994,19.97874],[73.79939,19.97832],[73.79989,19.9783],[73.79991,19.97872],[73.7994,19.97874]]]},"properties":{"id":"park_w238191536","type":"park","name":null,"name_local":null,"category":"park","source":"openstreetmap","source_id":"way/238191536","updated_at":"2013-09-16T14:14:36Z","tags":{}}},{"type":"Feature","geometry":{"type":"Polygon","coordinates":[[[73.801,19.98249],[73.80124,19.98249],[73.80127,19.98249],[73.80129,19.9825],[73.8013,19.98251],[73.80134,19.9827],[73.80095,19.98249],[73.801,19.98249]]]},"properties":{"id":"park_w238191563","type":"park","name":null,"name_local":null,"category":"park","source":"openstreetmap","source_id":"way/238191563","updated_at":"2013-09-16T14:14:38Z","tags":{}}},{"type":"Feature","geometry":{"type":"Polygon","coordinates":[[[73.76659,20.01415],[73.76718,20.01388],[73.76744,20.0144],[73.76669,20.01451],[73.76659,20.01415]]]},"properties":{"id":"park_w257428756","type":"park","name":null,"name_local":null,"category":"park","source":"openstreetmap","source_id":"way/257428756","updated_at":"2026-01-11T03:29:32Z","tags":{}}},{"type":"Feature","geometry":{"type":"Polygon","coordinates":[[[73.73751,20.00649],[73.73748,20.00615],[73.73785,20.00612],[73.73789,20.00646],[73.73751,20.00649]]]},"properties":{"id":"park_w315586193","type":"park","name":"Ganapati Mandir Park","name_local":null,"category":"park","source":"openstreetmap","source_id":"way/315586193","updated_at":"2014-12-03T10:23:01Z","tags":{}}},{"type":"Feature","geometry":{"type":"Polygon","coordinates":[[[73.71362,19.99077],[73.71358,19.99073],[73.71361,19.99068],[73.71368,19.99055],[73.71374,19.99045],[73.71383,19.9903],[73.71384,19.99022],[73.71389,19.99012],[73.71399,19.98999],[73.71407,19.98988],[73.71428,19.98989],[73.71443,19.98992],[73.71441,19.99022],[73.71438,19.99057],[73.71435,19.99087],[73.71389,19.99083],[73.71362,19.99077]]]},"properties":{"id":"park_w328012054","type":"park","name":"State Employee Society's Garden","name_local":null,"category":"garden","source":"openstreetmap","source_id":"way/328012054","updated_at":"2016-08-10T06:57:09Z","tags":{"addr:street":"Ashoknagar"}}},{"type":"Feature","geometry":{"type":"Polygon","coordinates":[[[73.77942,19.97455],[73.77923,19.97416],[73.77962,19.97395],[73.78015,19.97448],[73.77942,19.97455]]]},"properties":{"id":"park_w329115225","type":"park","name":null,"name_local":null,"category":"park","source":"openstreetmap","source_id":"way/329115225","updated_at":"2026-01-24T03:31:28Z","tags":{}}},{"type":"Feature","geometry":{"type":"Polygon","coordinates":[[[73.72167,19.99109],[73.7217,19.99089],[73.72175,19.99064],[73.72179,19.9905],[73.72185,19.99026],[73.72191,19.99001],[73.72193,19.98995],[73.722,19.98993],[73.72211,19.98995],[73.72214,19.99019],[73.72217,19.99068],[73.72217,19.99105],[73.72167,19.99109]]]},"properties":{"id":"park_w330177842","type":"park","name":null,"name_local":null,"category":"park","source":"openstreetmap","source_id":"way/330177842","updated_at":"2016-08-10T07:30:59Z","tags":{}}},{"type":"Feature","geometry":{"type":"Polygon","coordinates":[[[73.75903,20.01509],[73.75895,20.01428],[73.76051,20.01407],[73.76071,20.01482],[73.75903,20.01509]]]},"properties":{"id":"park_w331007521","type":"park","name":"Samartha jogging track","name_local":null,"category":"park","source":"openstreetmap","source_id":"way/331007521","updated_at":"2015-03-03T02:50:27Z","tags":{}}},{"type":"Feature","geometry":{"type":"Polygon","coordinates":[[[73.75717,20.01099],[73.75706,20.00988],[73.7573,20.00985],[73.75754,20.01098],[73.75717,20.01099]]]},"properties":{"id":"park_w331374258","type":"park","name":null,"name_local":null,"category":"park","source":"openstreetmap","source_id":"way/331374258","updated_at":"2019-01-15T09:18:57Z","tags":{}}},{"type":"Feature","geometry":{"type":"Polygon","coordinates":[[[73.80819,20.00361],[73.80808,20.00345],[73.8084,20.00327],[73.80856,20.00346],[73.80819,20.00361]]]},"properties":{"id":"park_w331374819","type":"park","name":null,"name_local":null,"category":"park","source":"openstreetmap","source_id":"way/331374819","updated_at":"2015-03-05T14:27:18Z","tags":{}}},{"type":"Feature","geometry":{"type":"Polygon","coordinates":[[[73.75587,19.98087],[73.75578,19.98064],[73.75575,19.98045],[73.75617,19.98039],[73.75623,19.98083],[73.75587,19.98087]]]},"properties":{"id":"park_w331502533","type":"park","name":null,"name_local":null,"category":"park","source":"openstreetmap","source_id":"way/331502533","updated_at":"2026-01-10T20:04:54Z","tags":{}}},{"type":"Feature","geometry":{"type":"Polygon","coordinates":[[[73.75765,19.97096],[73.75713,19.97107],[73.75702,19.97042],[73.75751,19.97033],[73.75765,19.97096]]]},"properties":{"id":"park_w331502534","type":"park","name":null,"name_local":null,"category":"park","source":"openstreetmap","source_id":"way/331502534","updated_at":"2026-01-22T10:55:22Z","tags":{}}},{"type":"Feature","geometry":{"type":"Polygon","coordinates":[[[73.75855,19.97237],[73.75851,19.97175],[73.7589,19.97171],[73.75963,19.97162],[73.75975,19.97227],[73.75968,19.97227],[73.759,19.97233],[73.75855,19.97237]]]},"properties":{"id":"park_w331502557","type":"park","name":null,"name_local":null,"category":"park","source":"openstreetmap","source_id":"way/331502557","updated_at":"2026-01-22T10:55:22Z","tags":{}}},{"type":"Feature","geometry":{"type":"Polygon","coordinates":[[[73.76474,19.96656],[73.76455,19.96629],[73.76495,19.96602],[73.76526,19.96642],[73.76474,19.96656]]]},"properties":{"id":"park_w331502585","type":"park","name":null,"name_local":null,"category":"park","source":"openstreetmap","source_id":"way/331502585","updated_at":"2026-01-10T19:40:17Z","tags":{}}},{"type":"Feature","geometry":{"type":"Polygon","coordinates":[[[73.78409,20.001],[73.78348,20.00083],[73.78287,20.00062],[73.78266,20.00055],[73.78262,20.00052],[73.78261,20.00048],[73.78264,20.00044],[73.78415,20.00053],[73.78463,20.00046],[73.78507,20.00037],[73.78519,20.0002],[73.78577,20.0002],[73.78578,20.00033],[73.78588,20.00034],[73.78589,20.00044],[73.78608,20.00043],[73.78615,20.00046],[73.78582,20.00071],[73.7857,20.00076],[73.78508,20.0009],[73.78447,20.001],[73.78409,20.001]]]},"properties":{"id":"park_w357373190","type":"park","name":"Chatrapati Shivaji Maharaj Garden","name_local":null,"category":"park","source":"openstreetmap","source_id":"way/357373190","updated_at":"2022-09-05T10:25:45Z","tags":{}}},{"type":"Feature","geometry":{"type":"Polygon","coordinates":[[[73.77343,20.00007],[73.7733,19.99962],[73.77379,19.99955],[73.77397,19.99963],[73.7741,19.99989],[73.77343,20.00007]]]},"properties":{"id":"park_w357373192","type":"park","name":null,"name_local":null,"category":"park","source":"openstreetmap","source_id":"way/357373192","updated_at":"2015-06-30T08:34:34Z","tags":{}}},{"type":"Feature","geometry":{"type":"Polygon","coordinates":[[[73.75554,20.02251],[73.75567,20.02223],[73.75605,20.02232],[73.75731,20.02278],[73.75886,20.02317],[73.75966,20.02331],[73.76068,20.0234],[73.76138,20.02339],[73.7617,20.02336],[73.76278,20.02324],[73.76411,20.02286],[73.765,20.0225],[73.76632,20.02201],[73.76635,20.02209],[73.76634,20.02232],[73.76616,20.02254],[73.76639,20.02342],[73.76535,20.02348],[73.76412,20.02357],[73.7635,20.02361],[73.76302,20.02369],[73.76267,20.02378],[73.76232,20.02381],[73.76098,20.02384],[73.76026,20.02386],[73.75996,20.02387],[73.75968,20.02381],[73.75829,20.02347],[73.75652,20.02295],[73.75554,20.02251]]]},"properties":{"id":"park_w390058152","type":"park","name":null,"name_local":null,"category":"park","source":"openstreetmap","source_id":"way/390058152","updated_at":"2019-01-16T10:34:04Z","tags":{}}},{"type":"Feature","geometry":{"type":"Polygon","coordinates":[[[73.81097,20.00034],[73.81105,20.00028],[73.81124,20.00025],[73.81138,20.00022],[73.81158,20.00017],[73.81172,20.00012],[73.81187,20.00007],[73.812,20.00003],[73.81216,19.99998],[73.81231,19.99997],[73.81255,19.99996],[73.81278,19.99997],[73.81304,19.99999],[73.81329,19.99999],[73.81353,20.00001],[73.81372,20.00004],[73.81395,20.0001],[73.81432,20.00019],[73.81476,20.00035],[73.81479,20.00054],[73.81453,20.00057],[73.81441,20.00056],[73.81429,20.00062],[73.81413,20.00074],[73.81398,20.00082],[73.81384,20.00093],[73.81375,20.00099],[73.81357,20.00105],[73.81334,20.00106],[73.81309,20.00103],[73.8129,20.00102],[73.81277,20.00098],[73.81262,20.00117],[73.81261,20.00143],[73.81257,20.00148],[73.81249,20.00152],[73.81226,20.00152],[73.81204,20.00149],[73.81188,20.00147],[73.81169,20.00146],[73.81154,20.00141],[73.81096,20.00055],[73.81093,20.00044],[73.81097,20.00034]]]},"properties":{"id":"park_w390062470","type":"park","name":"Tapovan","name_local":null,"category":"park","source":"openstreetmap","source_id":"way/390062470","updated_at":"2016-01-07T14:47:36Z","tags":{}}},{"type":"Feature","geometry":{"type":"Polygon","coordinates":[[[73.79053,19.98213],[73.79051,19.98192],[73.79049,19.98172],[73.79097,19.98169],[73.79101,19.98209],[73.79053,19.98213]]]},"properties":{"id":"park_w435251711","type":"park","name":"Shree Saptashrungi Udyan","name_local":null,"category":"park","source":"openstreetmap","source_id":"way/435251711","updated_at":"2024-11-23T09:55:20Z","tags":{}}},{"type":"Feature","geometry":{"type":"Polygon","coordinates":[[[73.76241,19.95696],[73.76216,19.95642],[73.76299,19.95603],[73.76317,19.9567],[73.76241,19.95696]]]},"properties":{"id":"park_w435255699","type":"park","name":"Mahanagar Palika Garden","name_local":null,"category":"park","source":"openstreetmap","source_id":"way/435255699","updated_at":"2016-08-02T07:11:46Z","tags":{}}},{"type":"Feature","geometry":{"type":"Polygon","coordinates":[[[73.78836,19.97452],[73.78838,19.97411],[73.78885,19.97406],[73.78891,19.97446],[73.78836,19.97452]]]},"properties":{"id":"park_w435257451","type":"park","name":"Swami Veer Sawarkar Udyan","name_local":null,"category":"park","source":"openstreetmap","source_id":"way/435257451","updated_at":"2016-08-02T07:28:47Z","tags":{}}},{"type":"Feature","geometry":{"type":"Polygon","coordinates":[[[73.82485,20.02218],[73.8248,20.02195],[73.82527,20.02183],[73.8253,20.02209],[73.82485,20.02218]]]},"properties":{"id":"park_w435638518","type":"park","name":"Sainath Nagar Garden","name_local":null,"category":"park","source":"openstreetmap","source_id":"way/435638518","updated_at":"2016-08-04T12:10:55Z","tags":{}}},{"type":"Feature","geometry":{"type":"Polygon","coordinates":[[[73.83014,20.02363],[73.83062,20.02254],[73.83081,20.02271],[73.83085,20.02294],[73.83087,20.02337],[73.83087,20.02384],[73.83083,20.02397],[73.83014,20.02363]]]},"properties":{"id":"park_w435641507","type":"park","name":"Swa. Pramod Mahajan Udyan","name_local":null,"category":"park","source":"openstreetmap","source_id":"way/435641507","updated_at":"2016-08-04T12:39:03Z","tags":{}}},{"type":"Feature","geometry":{"type":"Polygon","coordinates":[[[73.83051,20.01592],[73.83052,20.01582],[73.83055,20.01571],[73.83088,20.01576],[73.83084,20.01596],[73.83051,20.01592]]]},"properties":{"id":"park_w435936856","type":"park","name":"Kids Play Garden","name_local":null,"category":"park","source":"openstreetmap","source_id":"way/435936856","updated_at":"2016-08-06T11:37:52Z","tags":{}}},{"type":"Feature","geometry":{"type":"Polygon","coordinates":[[[73.76106,20.01876],[73.76106,20.01829],[73.76135,20.01828],[73.76135,20.01876],[73.76106,20.01876]]]},"properties":{"id":"park_w436196461","type":"park","name":"Shanti Niketan Udyan","name_local":null,"category":"park","source":"openstreetmap","source_id":"way/436196461","updated_at":"2016-08-08T07:29:46Z","tags":{}}},{"type":"Feature","geometry":{"type":"Polygon","coordinates":[[[73.75087,20.01796],[73.75067,20.01746],[73.75117,20.01741],[73.75121,20.0177],[73.75126,20.01799],[73.75109,20.01797],[73.75087,20.01796]]]},"properties":{"id":"park_w436198306","type":"park","name":"Nana Nani Udyan","name_local":null,"category":"park","source":"openstreetmap","source_id":"way/436198306","updated_at":"2016-08-08T07:56:27Z","tags":{}}},{"type":"Feature","geometry":{"type":"Polygon","coordinates":[[[73.75059,20.01478],[73.75052,20.01435],[73.75091,20.0143],[73.75097,20.01473],[73.75059,20.01478]]]},"properties":{"id":"park_w436220525","type":"park","name":"Palm Spring Garden","name_local":null,"category":"park","source":"openstreetmap","source_id":"way/436220525","updated_at":"2016-08-08T11:28:30Z","tags":{}}},{"type":"Feature","geometry":{"type":"Polygon","coordinates":[[[73.7035,19.99567],[73.70358,19.9952],[73.70444,19.99529],[73.70443,19.99559],[73.7035,19.99567]]]},"properties":{"id":"park_w436391727","type":"park","name":"Jagadguru Narendracharyaji Udyan","name_local":null,"category":"park","source":"openstreetmap","source_id":"way/436391727","updated_at":"2016-08-09T12:47:29Z","tags":{}}},{"type":"Feature","geometry":{"type":"Polygon","coordinates":[[[73.75769,19.98344],[73.75765,19.98309],[73.75794,19.98306],[73.75798,19.98341],[73.75769,19.98344]]]},"properties":{"id":"park_w436844534","type":"park","name":"Nehru Udyan","name_local":null,"category":"park","source":"openstreetmap","source_id":"way/436844534","updated_at":"2022-07-06T04:05:40Z","tags":{}}},{"type":"Feature","geometry":{"type":"Polygon","coordinates":[[[73.75795,19.98079],[73.75787,19.98032],[73.75907,19.98015],[73.75915,19.98063],[73.75876,19.98068],[73.75804,19.98078],[73.75795,19.98079]]]},"properties":{"id":"park_w436849833","type":"park","name":"Subhash Chandra Bose Garden","name_local":null,"category":"park","source":"openstreetmap","source_id":"way/436849833","updated_at":"2023-02-25T06:25:35Z","tags":{}}},{"type":"Feature","geometry":{"type":"Polygon","coordinates":[[[73.82706,19.9021],[73.82678,19.90238],[73.82637,19.90205],[73.8264,19.90158],[73.82706,19.9021]]]},"properties":{"id":"park_w471378958","type":"park","name":"Cantonment Board Garden","name_local":null,"category":"park","source":"openstreetmap","source_id":"way/471378958","updated_at":"2026-02-17T08:35:24Z","tags":{}}},{"type":"Feature","geometry":{"type":"Polygon","coordinates":[[[73.82332,19.89734],[73.82234,19.89746],[73.82236,19.89671],[73.82359,19.89673],[73.82332,19.89734]]]},"properties":{"id":"park_w471382104","type":"park","name":"Temple Hill","name_local":null,"category":"park","source":"openstreetmap","source_id":"way/471382104","updated_at":"2017-02-02T08:37:44Z","tags":{}}},{"type":"Feature","geometry":{"type":"Polygon","coordinates":[[[73.84445,19.98076],[73.84441,19.98076],[73.84441,19.98051],[73.84406,19.97994],[73.84486,19.98013],[73.84483,19.98076],[73.84445,19.98076]]]},"properties":{"id":"park_w548894517","type":"park","name":null,"name_local":null,"category":"park","source":"openstreetmap","source_id":"way/548894517","updated_at":"2017-12-24T18:13:04Z","tags":{}}},{"type":"Feature","geometry":{"type":"Polygon","coordinates":[[[73.78385,19.98708],[73.78384,19.98701],[73.78386,19.98695],[73.78388,19.9869],[73.7839,19.98686],[73.78396,19.9868],[73.78407,19.98674],[73.78419,19.9867],[73.7844,19.9867],[73.78445,19.98674],[73.78452,19.98683],[73.78456,19.98691],[73.78454,19.98699],[73.78448,19.98707],[73.78445,19.9871],[73.78434,19.98717],[73.7842,19.98722],[73.78413,19.98723],[73.78407,19.98723],[73.78402,19.98723],[73.78397,19.98722],[73.78393,19.98719],[73.78389,19.98715],[73.78385,19.98708]]]},"properties":{"id":"park_w548896448","type":"park","name":null,"name_local":null,"category":"garden","source":"openstreetmap","source_id":"way/548896448","updated_at":"2026-01-10T19:40:17Z","tags":{}}},{"type":"Feature","geometry":{"type":"Polygon","coordinates":[[[73.81609,20.04422],[73.81586,20.04368],[73.81674,20.04335],[73.81699,20.04392],[73.81649,20.04408],[73.81609,20.04422]]]},"properties":{"id":"park_w574967019","type":"park","name":"Jagannath Lawns","name_local":null,"category":"park","source":"openstreetmap","source_id":"way/574967019","updated_at":"2018-03-31T08:24:44Z","tags":{}}},{"type":"Feature","geometry":{"type":"Polygon","coordinates":[[[73.81554,20.03168],[73.81554,20.03131],[73.81598,20.03125],[73.81602,20.03173],[73.81554,20.03168]]]},"properties":{"id":"park_w574967026","type":"park","name":"Akshata Lawns","name_local":null,"category":"park","source":"openstreetmap","source_id":"way/574967026","updated_at":"2018-03-31T08:24:44Z","tags":{}}},{"type":"Feature","geometry":{"type":"Polygon","coordinates":[[[73.80592,20.03332],[73.80589,20.03314],[73.80626,20.03308],[73.80628,20.03328],[73.80592,20.03332]]]},"properties":{"id":"park_w574967039","type":"park","name":"Pokar Colony Park","name_local":null,"category":"park","source":"openstreetmap","source_id":"way/574967039","updated_at":"2018-03-31T08:24:44Z","tags":{}}},{"type":"Feature","geometry":{"type":"Polygon","coordinates":[[[73.75289,20.001],[73.75279,20.00033],[73.75343,20.00026],[73.7535,20.0008],[73.75289,20.001]]]},"properties":{"id":"park_w662586129","type":"park","name":"G. H. Deshpande park","name_local":null,"category":"park","source":"openstreetmap","source_id":"way/662586129","updated_at":"2023-02-03T09:37:09Z","tags":{}}},{"type":"Feature","geometry":{"type":"Polygon","coordinates":[[[73.75775,20.00336],[73.75836,20.00246],[73.75896,20.00198],[73.75988,20.00121],[73.76005,20.00095],[73.76036,20.00071],[73.76055,20.00065],[73.76083,20.00044],[73.76106,20.00066],[73.7607,20.00097],[73.75934,20.00214],[73.75868,20.0026],[73.75829,20.00309],[73.75802,20.00351],[73.75795,20.00358],[73.75786,20.00357],[73.75775,20.00336]]]},"properties":{"id":"park_w663442063","type":"park","name":"Krushinagar Joggers Park","name_local":null,"category":"park","source":"openstreetmap","source_id":"way/663442063","updated_at":"2019-01-15T09:04:59Z","tags":{}}},{"type":"Feature","geometry":{"type":"Polygon","coordinates":[[[73.75613,20.01062],[73.75604,20.00995],[73.7564,20.00991],[73.75648,20.01058],[73.75613,20.01062]]]},"properties":{"id":"park_w663444326","type":"park","name":null,"name_local":null,"category":"park","source":"openstreetmap","source_id":"way/663444326","updated_at":"2019-01-15T09:17:27Z","tags":{}}},{"type":"Feature","geometry":{"type":"Polygon","coordinates":[[[73.76881,19.96963],[73.76793,19.97039],[73.76836,19.97085],[73.76815,19.97104],[73.7672,19.9701],[73.76704,19.97016],[73.76694,19.97007],[73.76742,19.96999],[73.7674,19.96992],[73.76837,19.96978],[73.76859,19.96929],[73.76881,19.96963]]]},"properties":{"id":"park_w746825226","type":"park","name":"Cidco Children's Park","name_local":null,"category":"park","source":"openstreetmap","source_id":"way/746825226","updated_at":"2026-01-10T20:04:54Z","tags":{}}},{"type":"Feature","geometry":{"type":"Polygon","coordinates":[[[73.76175,19.96295],[73.76208,19.96331],[73.76177,19.96348],[73.7615,19.96313],[73.76175,19.96295]]]},"properties":{"id":"park_w747082787","type":"park","name":"Bhagwan Shrikrishna park","name_local":null,"category":"park","source":"openstreetmap","source_id":"way/747082787","updated_at":"2019-11-19T17:53:53Z","tags":{}}},{"type":"Feature","geometry":{"type":"Polygon","coordinates":[[[73.75933,19.96054],[73.75937,19.96053],[73.75942,19.96059],[73.75949,19.9605],[73.76008,19.961],[73.75966,19.96145],[73.75947,19.96134],[73.75951,19.96125],[73.75913,19.96093],[73.75935,19.96066],[73.7593,19.9606],[73.75933,19.96054]]]},"properties":{"id":"park_w747083790","type":"park","name":"Meenatai Thakare Udyan","name_local":null,"category":"park","source":"openstreetmap","source_id":"way/747083790","updated_at":"2026-01-10T19:40:17Z","tags":{}}},{"type":"Feature","geometry":{"type":"Polygon","coordinates":[[[73.76021,19.96237],[73.76058,19.96196],[73.76095,19.96229],[73.76062,19.96267],[73.76021,19.96237]]]},"properties":{"id":"park_w747308272","type":"park","name":null,"name_local":null,"category":"park","source":"openstreetmap","source_id":"way/747308272","updated_at":"2019-11-20T14:01:26Z","tags":{}}},{"type":"Feature","geometry":{"type":"Polygon","coordinates":[[[73.76139,19.96064],[73.76159,19.96042],[73.76182,19.96061],[73.76161,19.96083],[73.76139,19.96064]]]},"properties":{"id":"park_w749662627","type":"park","name":"Dr.Babasaheb Ambedkar Udyan","name_local":null,"category":"park","source":"openstreetmap","source_id":"way/749662627","updated_at":"2022-07-01T07:23:35Z","tags":{}}},{"type":"Feature","geometry":{"type":"Polygon","coordinates":[[[73.75777,19.96238],[73.75806,19.96206],[73.75824,19.96221],[73.75796,19.9625],[73.75777,19.96238]]]},"properties":{"id":"park_w749662922","type":"park","name":"Sawarkar Udyan","name_local":null,"category":"park","source":"openstreetmap","source_id":"way/749662922","updated_at":"2019-11-26T03:48:07Z","tags":{}}},{"type":"Feature","geometry":{"type":"Polygon","coordinates":[[[73.76455,19.96629],[73.76495,19.96602],[73.76526,19.96642],[73.76474,19.96656],[73.76455,19.96629]]]},"properties":{"id":"park_w749663123","type":"park","name":"Prabodhankar Thakare Sabhagruh Udyan","name_local":null,"category":"park","source":"openstreetmap","source_id":"way/749663123","updated_at":"2019-11-26T03:50:58Z","tags":{}}},{"type":"Feature","geometry":{"type":"Polygon","coordinates":[[[73.76615,19.96568],[73.76627,19.9656],[73.76645,19.96583],[73.76632,19.96591],[73.76615,19.96568]]]},"properties":{"id":"park_w749663914","type":"park","name":"Shri Saibaba Mandir Udyan","name_local":null,"category":"park","source":"openstreetmap","source_id":"way/749663914","updated_at":"2019-11-26T03:54:43Z","tags":{}}},{"type":"Feature","geometry":{"type":"Polygon","coordinates":[[[73.75855,19.95827],[73.75879,19.95804],[73.75906,19.95826],[73.75883,19.9585],[73.75855,19.95827]]]},"properties":{"id":"park_w749783438","type":"park","name":"Ganesh Mandir Park","name_local":null,"category":"park","source":"openstreetmap","source_id":"way/749783438","updated_at":"2019-11-26T13:07:35Z","tags":{}}},{"type":"Feature","geometry":{"type":"Polygon","coordinates":[[[73.77674,19.98275],[73.77699,19.98229],[73.77717,19.98237],[73.7772,19.98268],[73.77674,19.98275]]]},"properties":{"id":"park_w859409085","type":"park","name":"Shree Vighnaharta Garden","name_local":null,"category":"park","source":"openstreetmap","source_id":"way/859409085","updated_at":"2020-10-15T18:38:30Z","tags":{"surface":"grass"}}},{"type":"Feature","geometry":{"type":"Polygon","coordinates":[[[73.76076,19.97503],[73.76061,19.97446],[73.76112,19.97441],[73.76117,19.97498],[73.76076,19.97503]]]},"properties":{"id":"park_w870431194","type":"park","name":"Children's Playground in Laxmi Nagar","name_local":null,"category":"park","source":"openstreetmap","source_id":"way/870431194","updated_at":"2020-11-11T15:51:59Z","tags":{}}},{"type":"Feature","geometry":{"type":"Polygon","coordinates":[[[73.75409,19.97728],[73.75407,19.97708],[73.7543,19.97705],[73.75434,19.97725],[73.75409,19.97728]]]},"properties":{"id":"park_w870443083","type":"park","name":"Children's Park","name_local":null,"category":"park","source":"openstreetmap","source_id":"way/870443083","updated_at":"2020-11-11T16:26:56Z","tags":{}}},{"type":"Feature","geometry":{"type":"Polygon","coordinates":[[[73.7603,19.97706],[73.76014,19.97669],[73.76059,19.97666],[73.76068,19.97709],[73.7603,19.97706]]]},"properties":{"id":"park_w919618102","type":"park","name":"Uday Colony Bal Udyan","name_local":null,"category":"park","source":"openstreetmap","source_id":"way/919618102","updated_at":"2021-03-20T05:26:43Z","tags":{}}},{"type":"Feature","geometry":{"type":"Polygon","coordinates":[[[73.759,19.97233],[73.7589,19.97171],[73.75957,19.9717],[73.75968,19.97227],[73.759,19.97233]]]},"properties":{"id":"park_w919623194","type":"park","name":"Maha Kali Chowk Playground","name_local":null,"category":"park","source":"openstreetmap","source_id":"way/919623194","updated_at":"2021-03-20T05:55:13Z","tags":{}}},{"type":"Feature","geometry":{"type":"Polygon","coordinates":[[[73.75713,19.97107],[73.75702,19.97042],[73.75751,19.97033],[73.75765,19.97096],[73.75713,19.97107]]]},"properties":{"id":"park_w919623328","type":"park","name":"Rajratna Nagar Garden","name_local":null,"category":"park","source":"openstreetmap","source_id":"way/919623328","updated_at":"2021-03-20T05:56:47Z","tags":{}}},{"type":"Feature","geometry":{"type":"Polygon","coordinates":[[[73.76523,19.97384],[73.7652,19.97357],[73.76544,19.97354],[73.76557,19.97368],[73.76546,19.97384],[73.76523,19.97384]]]},"properties":{"id":"park_w919638735","type":"park","name":"Maharana Pratap Udyan","name_local":null,"category":"park","source":"openstreetmap","source_id":"way/919638735","updated_at":"2023-04-14T07:22:50Z","tags":{}}},{"type":"Feature","geometry":{"type":"Polygon","coordinates":[[[73.77183,19.968],[73.7715,19.96717],[73.77175,19.96718],[73.77216,19.9679],[73.77213,19.96791],[73.77198,19.96795],[73.77183,19.968]]]},"properties":{"id":"park_w945519032","type":"park","name":"Saksharkari Datta Mandir Park","name_local":null,"category":"park","source":"openstreetmap","source_id":"way/945519032","updated_at":"2022-05-16T03:55:54Z","tags":{"operator":"Saksharkari Datta Mandir","addr:street":"sakshatkari datta mandir marg"}}},{"type":"Feature","geometry":{"type":"Polygon","coordinates":[[[73.77225,19.96722],[73.77259,19.96724],[73.77273,19.96774],[73.77261,19.96777],[73.77225,19.96722]]]},"properties":{"id":"park_w945520499","type":"park","name":"Mayureshwar Ganpati Park","name_local":null,"category":"park","source":"openstreetmap","source_id":"way/945520499","updated_at":"2021-05-21T15:10:44Z","tags":{}}},{"type":"Feature","geometry":{"type":"Polygon","coordinates":[[[73.77268,19.96654],[73.77296,19.96719],[73.77265,19.96723],[73.77268,19.96654]]]},"properties":{"id":"park_w945521574","type":"park","name":"Traingle garden","name_local":null,"category":"park","source":"openstreetmap","source_id":"way/945521574","updated_at":"2021-05-21T15:12:33Z","tags":{}}},{"type":"Feature","geometry":{"type":"Polygon","coordinates":[[[73.77275,19.96819],[73.77304,19.9681],[73.77345,19.96903],[73.77312,19.96914],[73.77275,19.96819]]]},"properties":{"id":"park_w946411833","type":"park","name":"Swami Samrth Mandir Park","name_local":null,"category":"park","source":"openstreetmap","source_id":"way/946411833","updated_at":"2022-10-28T12:43:04Z","tags":{"operator":"Swami Samrth Mandir","addr:street":"vaibhav Colony"}}},{"type":"Feature","geometry":{"type":"Polygon","coordinates":[[[73.77323,19.96596],[73.77318,19.96582],[73.7752,19.96559],[73.77521,19.96585],[73.77323,19.96596]]]},"properties":{"id":"park_w958885329","type":"park","name":"Kishor Nagar Garden 1","name_local":null,"category":"park","source":"openstreetmap","source_id":"way/958885329","updated_at":"2021-06-29T15:14:18Z","tags":{"addr:city":"Nashik","addr:postcode":"422009"}}},{"type":"Feature","geometry":{"type":"Polygon","coordinates":[[[73.77571,19.96674],[73.77416,19.96624],[73.77566,19.96621],[73.77571,19.96674]]]},"properties":{"id":"park_w958885623","type":"park","name":"Kishor Nagar Garden 2","name_local":null,"category":"park","source":"openstreetmap","source_id":"way/958885623","updated_at":"2021-06-28T15:29:17Z","tags":{"addr:city":"Nashik","addr:postcode":"422009"}}},{"type":"Feature","geometry":{"type":"Polygon","coordinates":[[[73.77366,19.96765],[73.7734,19.96699],[73.77439,19.96742],[73.77366,19.96765]]]},"properties":{"id":"park_w958886752","type":"park","name":"Pushpanjali Colony Garden","name_local":null,"category":"park","source":"openstreetmap","source_id":"way/958886752","updated_at":"2021-06-28T15:34:26Z","tags":{}}},{"type":"Feature","geometry":{"type":"Polygon","coordinates":[[[73.77761,19.96944],[73.7775,19.96906],[73.77794,19.96894],[73.77806,19.96934],[73.77761,19.96944]]]},"properties":{"id":"park_w958886753","type":"park","name":"Rajiv Township Garden","name_local":null,"category":"park","source":"openstreetmap","source_id":"way/958886753","updated_at":"2021-06-28T15:34:26Z","tags":{"addr:city":"Nashik","addr:postcode":"422009"}}},{"type":"Feature","geometry":{"type":"Polygon","coordinates":[[[73.7771,19.96744],[73.77709,19.96734],[73.77794,19.96722],[73.77802,19.96773],[73.7771,19.96744]]]},"properties":{"id":"park_w958886889","type":"park","name":"Kanifnath Nagar Park","name_local":null,"category":"park","source":"openstreetmap","source_id":"way/958886889","updated_at":"2021-06-28T15:35:46Z","tags":{}}},{"type":"Feature","geometry":{"type":"Polygon","coordinates":[[[73.77783,19.96658],[73.77704,19.966],[73.77771,19.96591],[73.77783,19.96658]]]},"properties":{"id":"park_w958887730","type":"park","name":"DayCare School openspace","name_local":null,"category":"park","source":"openstreetmap","source_id":"way/958887730","updated_at":"2025-03-15T09:25:21Z","tags":{}}},{"type":"Feature","geometry":{"type":"Polygon","coordinates":[[[73.77453,19.96874],[73.77438,19.96827],[73.77481,19.96816],[73.77496,19.96865],[73.77453,19.96874]]]},"properties":{"id":"park_w958888004","type":"park","name":"Neelmani Colony Park","name_local":null,"category":"park","source":"openstreetmap","source_id":"way/958888004","updated_at":"2021-06-28T15:42:29Z","tags":{}}},{"type":"Feature","geometry":{"type":"Polygon","coordinates":[[[73.77882,19.9694],[73.7787,19.96905],[73.77928,19.9692],[73.77931,19.96933],[73.77882,19.9694]]]},"properties":{"id":"park_w958888803","type":"park","name":"Union Bank Colony- Openspace","name_local":null,"category":"park","source":"openstreetmap","source_id":"way/958888803","updated_at":"2026-02-06T08:40:21Z","tags":{}}},{"type":"Feature","geometry":{"type":"Polygon","coordinates":[[[73.775,19.96765],[73.77487,19.96727],[73.77543,19.96747],[73.77549,19.96751],[73.775,19.96765]]]},"properties":{"id":"park_w959036535","type":"park","name":null,"name_local":null,"category":"park","source":"openstreetmap","source_id":"way/959036535","updated_at":"2024-11-26T13:47:36Z","tags":{}}},{"type":"Feature","geometry":{"type":"Polygon","coordinates":[[[73.94094,20.10229],[73.9417,20.10075],[73.9442,20.10184],[73.94346,20.10339],[73.94094,20.10229]]]},"properties":{"id":"park_w997835745","type":"park","name":"Ambedkar Garden","name_local":null,"category":"garden","source":"openstreetmap","source_id":"way/997835745","updated_at":"2021-10-31T07:42:48Z","tags":{}}},{"type":"Feature","geometry":{"type":"Polygon","coordinates":[[[73.9461,20.10646],[73.9463,20.10605],[73.94667,20.10621],[73.94647,20.10662],[73.9461,20.10646]]]},"properties":{"id":"park_w997835749","type":"park","name":null,"name_local":null,"category":"garden","source":"openstreetmap","source_id":"way/997835749","updated_at":"2021-10-31T07:42:48Z","tags":{}}},{"type":"Feature","geometry":{"type":"Polygon","coordinates":[[[73.91985,20.10609],[73.91985,20.10568],[73.9207,20.10564],[73.92069,20.10607],[73.91985,20.10609]]]},"properties":{"id":"park_w997835756","type":"park","name":null,"name_local":null,"category":"park","source":"openstreetmap","source_id":"way/997835756","updated_at":"2021-10-31T07:42:48Z","tags":{}}},{"type":"Feature","geometry":{"type":"Polygon","coordinates":[[[73.91874,20.10562],[73.91795,20.10564],[73.91792,20.10458],[73.91873,20.1045],[73.91874,20.10562]]]},"properties":{"id":"park_w997835757","type":"park","name":"Chaman Park","name_local":null,"category":"park","source":"openstreetmap","source_id":"way/997835757","updated_at":"2021-10-31T07:42:48Z","tags":{}}},{"type":"Feature","geometry":{"type":"Polygon","coordinates":[[[73.80397,19.98159],[73.8039,19.98161],[73.80371,19.98162],[73.80369,19.98136],[73.80395,19.98132],[73.80397,19.98159]]]},"properties":{"id":"park_w1020818300","type":"park","name":"NMC Garden","name_local":null,"category":"park","source":"openstreetmap","source_id":"way/1020818300","updated_at":"2023-08-20T11:44:13Z","tags":{"operator":"Nashik Municipal Corporation","opening_hours":"24/7"}}},{"type":"Feature","geometry":{"type":"Polygon","coordinates":[[[73.80488,20.03727],[73.80487,20.03726],[73.80485,20.03714],[73.80475,20.03671],[73.80464,20.03626],[73.80464,20.03624],[73.80466,20.03623],[73.80491,20.0362],[73.80494,20.03619],[73.80496,20.03621],[73.805,20.03648],[73.80505,20.0369],[73.80509,20.03726],[73.80488,20.03727]]]},"properties":{"id":"park_w1153422200","type":"park","name":null,"name_local":null,"category":"park","source":"openstreetmap","source_id":"way/1153422200","updated_at":"2023-03-11T09:42:29Z","tags":{}}},{"type":"Feature","geometry":{"type":"Polygon","coordinates":[[[73.80602,20.01269],[73.80679,20.01259],[73.80624,20.01311],[73.80616,20.01299],[73.8062,20.01293],[73.80602,20.01269]]]},"properties":{"id":"park_w1153422494","type":"park","name":null,"name_local":null,"category":"park","source":"openstreetmap","source_id":"way/1153422494","updated_at":"2023-03-11T09:44:23Z","tags":{}}},{"type":"Feature","geometry":{"type":"Polygon","coordinates":[[[73.75064,19.96304],[73.75065,19.96294],[73.75068,19.9629],[73.75068,19.96283],[73.75063,19.96285],[73.75064,19.96279],[73.75088,19.96275],[73.75091,19.9628],[73.75105,19.96286],[73.75104,19.96306],[73.75064,19.96304]]]},"properties":{"id":"park_w1153423555","type":"park","name":null,"name_local":null,"category":"park","source":"openstreetmap","source_id":"way/1153423555","updated_at":"2023-03-11T09:55:16Z","tags":{}}},{"type":"Feature","geometry":{"type":"Polygon","coordinates":[[[73.83656,19.97178],[73.83661,19.97128],[73.83671,19.97127],[73.83702,19.97148],[73.837,19.97181],[73.83656,19.97178]]]},"properties":{"id":"park_w1153423679","type":"park","name":null,"name_local":null,"category":"park","source":"openstreetmap","source_id":"way/1153423679","updated_at":"2026-01-11T09:29:08Z","tags":{}}},{"type":"Feature","geometry":{"type":"Polygon","coordinates":[[[73.77439,19.99225],[73.77433,19.99206],[73.7744,19.99198],[73.77463,19.99193],[73.77472,19.9919],[73.77483,19.99192],[73.77479,19.99208],[73.77482,19.99223],[73.77439,19.99225]]]},"properties":{"id":"park_w1153426884","type":"park","name":null,"name_local":null,"category":"park","source":"openstreetmap","source_id":"way/1153426884","updated_at":"2023-03-11T10:21:09Z","tags":{}}},{"type":"Feature","geometry":{"type":"Polygon","coordinates":[[[73.77842,19.96794],[73.7784,19.96772],[73.77833,19.96728],[73.77825,19.96697],[73.77823,19.96685],[73.77824,19.96683],[73.77827,19.96682],[73.77835,19.9668],[73.77839,19.9668],[73.77842,19.96682],[73.77851,19.96724],[73.77863,19.96791],[73.77842,19.96794]]]},"properties":{"id":"park_w1153426968","type":"park","name":null,"name_local":null,"category":"park","source":"openstreetmap","source_id":"way/1153426968","updated_at":"2023-03-11T10:21:38Z","tags":{}}},{"type":"Feature","geometry":{"type":"Polygon","coordinates":[[[73.87127,19.97843],[73.87281,19.97836],[73.87281,19.97868],[73.87292,19.97886],[73.87303,19.97896],[73.87321,19.97904],[73.87342,19.97909],[73.87408,19.97908],[73.87419,19.97917],[73.87422,19.97926],[73.87422,19.97932],[73.87397,19.97953],[73.87276,19.98033],[73.87247,19.98008],[73.8722,19.97997],[73.87112,19.97943],[73.87127,19.97843]]]},"properties":{"id":"park_w1153427229","type":"park","name":null,"name_local":null,"category":"park","source":"openstreetmap","source_id":"way/1153427229","updated_at":"2023-03-11T10:24:06Z","tags":{}}},{"type":"Feature","geometry":{"type":"Polygon","coordinates":[[[73.70639,20.0077],[73.70641,20.00758],[73.70661,20.00751],[73.70702,20.00731],[73.70708,20.00766],[73.70672,20.00776],[73.70639,20.0077]]]},"properties":{"id":"park_w1153427744","type":"park","name":null,"name_local":null,"category":"park","source":"openstreetmap","source_id":"way/1153427744","updated_at":"2023-03-11T10:25:51Z","tags":{}}},{"type":"Feature","geometry":{"type":"Polygon","coordinates":[[[73.80324,20.03959],[73.80315,20.03924],[73.80371,20.03914],[73.80377,20.03948],[73.80324,20.03959]]]},"properties":{"id":"park_w1153693907","type":"park","name":null,"name_local":null,"category":"park","source":"openstreetmap","source_id":"way/1153693907","updated_at":"2023-03-12T09:19:00Z","tags":{}}},{"type":"Feature","geometry":{"type":"Polygon","coordinates":[[[73.79661,19.99093],[73.79647,19.99048],[73.7966,19.99061],[73.79687,19.99087],[73.79661,19.99093]]]},"properties":{"id":"park_w1162031770","type":"park","name":null,"name_local":null,"category":"garden","source":"openstreetmap","source_id":"way/1162031770","updated_at":"2023-04-13T10:28:56Z","tags":{}}},{"type":"Feature","geometry":{"type":"Polygon","coordinates":[[[73.79687,19.99087],[73.7966,19.99061],[73.79647,19.99046],[73.79679,19.99036],[73.79687,19.99087]]]},"properties":{"id":"park_w1162031771","type":"park","name":null,"name_local":null,"category":"garden","source":"openstreetmap","source_id":"way/1162031771","updated_at":"2023-04-13T10:28:56Z","tags":{}}},{"type":"Feature","geometry":{"type":"Polygon","coordinates":[[[73.89149,20.1129],[73.8915,20.11255],[73.89155,20.11247],[73.89173,20.1123],[73.89202,20.11218],[73.89229,20.11213],[73.89258,20.11213],[73.89281,20.1122],[73.89296,20.11225],[73.89307,20.11234],[73.89295,20.11242],[73.89284,20.11256],[73.89276,20.11267],[73.89272,20.11272],[73.8927,20.11293],[73.89276,20.113],[73.89287,20.11323],[73.89296,20.11336],[73.89262,20.1135],[73.89244,20.11352],[73.8923,20.11352],[73.89198,20.11342],[73.8918,20.11331],[73.89165,20.11317],[73.89155,20.11304],[73.89149,20.1129]]]},"properties":{"id":"park_w1178191326","type":"park","name":null,"name_local":null,"category":"park","source":"openstreetmap","source_id":"way/1178191326","updated_at":"2023-06-01T21:03:57Z","tags":{}}},{"type":"Feature","geometry":{"type":"Polygon","coordinates":[[[74.00241,19.85259],[74.00065,19.85263],[74.00062,19.85076],[74.00066,19.85056],[74.00077,19.85039],[74.00106,19.85004],[74.00136,19.84985],[74.00299,19.84953],[74.00335,19.84946],[74.00349,19.84954],[74.00352,19.85036],[74.00365,19.85068],[74.00365,19.85101],[74.00362,19.85117],[74.0035,19.85139],[74.00269,19.85238],[74.00241,19.85259]]]},"properties":{"id":"park_w1184821494","type":"park","name":"Shri Gondeshwar Temple","name_local":null,"category":"park","source":"openstreetmap","source_id":"way/1184821494","updated_at":"2023-06-25T13:12:32Z","tags":{}}},{"type":"Feature","geometry":{"type":"Polygon","coordinates":[[[73.75867,20.01087],[73.75859,20.01037],[73.75907,20.01029],[73.75922,20.01095],[73.75905,20.01099],[73.75886,20.01083],[73.75867,20.01087]]]},"properties":{"id":"park_w1234208216","type":"park","name":"National Tennis Aca","name_local":null,"category":"park","source":"openstreetmap","source_id":"way/1234208216","updated_at":"2023-12-26T04:35:46Z","tags":{}}},{"type":"Feature","geometry":{"type":"Polygon","coordinates":[[[73.83232,19.95945],[73.8323,19.9592],[73.83285,19.95915],[73.83287,19.95942],[73.83232,19.95945]]]},"properties":{"id":"park_w1283555995","type":"park","name":null,"name_local":null,"category":"garden","source":"openstreetmap","source_id":"way/1283555995","updated_at":"2024-05-16T08:50:03Z","tags":{}}},{"type":"Feature","geometry":{"type":"Polygon","coordinates":[[[73.72768,20.01834],[73.7275,20.01765],[73.72764,20.01762],[73.72814,20.0182],[73.72768,20.01834]]]},"properties":{"id":"park_w1326232638","type":"park","name":"Suvarnakarnagar jogging track","name_local":null,"category":"park","source":"openstreetmap","source_id":"way/1326232638","updated_at":"2024-10-20T11:04:45Z","tags":{"addr:city":"Nasik"}}},{"type":"Feature","geometry":{"type":"Polygon","coordinates":[[[73.80739,19.95909],[73.80744,19.95891],[73.80763,19.95896],[73.80758,19.95914],[73.80739,19.95909]]]},"properties":{"id":"park_w1336698985","type":"park","name":null,"name_local":null,"category":"park","source":"openstreetmap","source_id":"way/1336698985","updated_at":"2024-11-22T05:24:43Z","tags":{}}},{"type":"Feature","geometry":{"type":"Polygon","coordinates":[[[73.91361,20.08315],[73.9135,20.08301],[73.9134,20.08288],[73.91427,20.08226],[73.91456,20.08232],[73.91464,20.08241],[73.91361,20.08315]]]},"properties":{"id":"park_w1338632184","type":"park","name":"shinde lawns","name_local":null,"category":"park","source":"openstreetmap","source_id":"way/1338632184","updated_at":"2024-11-28T14:43:04Z","tags":{}}},{"type":"Feature","geometry":{"type":"Polygon","coordinates":[[[73.74321,19.94265],[73.74225,19.94208],[73.74149,19.94156],[73.74066,19.94091],[73.7399,19.94014],[73.74001,19.94007],[73.74124,19.93924],[73.74225,19.93873],[73.74315,19.93861],[73.74329,19.93873],[73.74362,19.93935],[73.74431,19.9413],[73.74321,19.94265]]]},"properties":{"id":"park_w1466071632","type":"park","name":"Botanical Garden","name_local":null,"category":"garden","source":"openstreetmap","source_id":"way/1466071632","updated_at":"2026-01-10T18:37:57Z","tags":{}}},{"type":"Feature","geometry":{"type":"Polygon","coordinates":[[[73.78648,20.00051],[73.78656,20.0005],[73.78661,20.00054],[73.78665,20.0007],[73.78664,20.00073],[73.78635,20.00074],[73.78632,20.00072],[73.78632,20.00066],[73.78648,20.00051]]]},"properties":{"id":"park_w1466145731","type":"park","name":null,"name_local":null,"category":"park","source":"openstreetmap","source_id":"way/1466145731","updated_at":"2026-01-11T05:56:31Z","tags":{}}},{"type":"Feature","geometry":{"type":"Polygon","coordinates":[[[73.74771,19.94483],[73.74783,19.94475],[73.74813,19.94491],[73.74823,19.9449],[73.74889,19.9447],[73.74877,19.94383],[73.74896,19.94377],[73.7491,19.94372],[73.74946,19.94308],[73.74991,19.94286],[73.75067,19.94272],[73.75065,19.94261],[73.75059,19.94234],[73.75126,19.94219],[73.75233,19.94158],[73.75238,19.94376],[73.75083,19.94422],[73.74975,19.94461],[73.74784,19.94511],[73.74774,19.94489],[73.74771,19.94483]]]},"properties":{"id":"park_w1466161773","type":"park","name":"Phalke Smarak","name_local":null,"category":"park","source":"openstreetmap","source_id":"way/1466161773","updated_at":"2026-01-11T08:38:28Z","tags":{}}},{"type":"Feature","geometry":{"type":"Polygon","coordinates":[[[73.83101,20.01576],[73.83141,20.01582],[73.83139,20.01621],[73.83096,20.01621],[73.83101,20.01576]]]},"properties":{"id":"park_w1466165894","type":"park","name":"Tulsi Udyan","name_local":null,"category":"park","source":"openstreetmap","source_id":"way/1466165894","updated_at":"2026-01-11T09:22:41Z","tags":{}}},{"type":"Feature","geometry":{"type":"Polygon","coordinates":[[[73.84962,19.97636],[73.85041,19.97635],[73.8504,19.97689],[73.85101,19.97691],[73.85099,19.97701],[73.85129,19.97701],[73.85135,19.97785],[73.85086,19.9779],[73.85089,19.97813],[73.85031,19.97817],[73.85031,19.97791],[73.84984,19.97794],[73.84983,19.97773],[73.8496,19.97769],[73.84962,19.97636]]]},"properties":{"id":"park_w1466166924","type":"park","name":null,"name_local":null,"category":"park","source":"openstreetmap","source_id":"way/1466166924","updated_at":"2026-01-11T09:29:08Z","tags":{}}},{"type":"Feature","geometry":{"type":"Polygon","coordinates":[[[73.80125,19.98679],[73.80136,19.9868],[73.80136,19.98694],[73.80134,19.9871],[73.80126,19.98724],[73.801,19.98751],[73.80125,19.98679]]]},"properties":{"id":"park_w1466176699","type":"park","name":null,"name_local":null,"category":"park","source":"openstreetmap","source_id":"way/1466176699","updated_at":"2026-01-11T10:26:43Z","tags":{}}},{"type":"Feature","geometry":{"type":"Polygon","coordinates":[[[73.77758,19.98744],[73.77754,19.98763],[73.7761,19.98773],[73.7761,19.98754],[73.77758,19.98744]]]},"properties":{"id":"park_w1466555419","type":"park","name":null,"name_local":null,"category":"park","source":"openstreetmap","source_id":"way/1466555419","updated_at":"2026-01-12T18:09:09Z","tags":{}}},{"type":"Feature","geometry":{"type":"Polygon","coordinates":[[[73.70684,20.02105],[73.7076,20.02084],[73.70748,20.02034],[73.70812,20.01999],[73.70847,20.02024],[73.7092,20.02029],[73.71045,20.02132],[73.71069,20.02121],[73.71099,20.02151],[73.71074,20.02159],[73.71091,20.02219],[73.70803,20.0224],[73.70684,20.02105]]]},"properties":{"id":"park_w1469444202","type":"park","name":null,"name_local":null,"category":"park","source":"openstreetmap","source_id":"way/1469444202","updated_at":"2026-01-22T10:55:22Z","tags":{}}},{"type":"Feature","geometry":{"type":"Polygon","coordinates":[[[73.75665,19.97078],[73.75673,19.97114],[73.75634,19.97122],[73.75625,19.97086],[73.75665,19.97078]]]},"properties":{"id":"park_w1469444206","type":"park","name":null,"name_local":null,"category":"park","source":"openstreetmap","source_id":"way/1469444206","updated_at":"2026-01-22T10:55:22Z","tags":{}}},{"type":"Feature","geometry":{"type":"Polygon","coordinates":[[[73.79011,20.00859],[73.79,20.00888],[73.7898,20.00907],[73.78976,20.00904],[73.78974,20.0088],[73.79011,20.00859]]]},"properties":{"id":"park_w1470352101","type":"park","name":"Dharamveer Chatrapati Sambajo Raje Bhosle Udyan","name_local":null,"category":"park","source":"openstreetmap","source_id":"way/1470352101","updated_at":"2026-01-25T17:57:35Z","tags":{}}},{"type":"Feature","geometry":{"type":"Polygon","coordinates":[[[73.8425,19.94556],[73.84333,19.94556],[73.84335,19.94651],[73.84305,19.94648],[73.84264,19.94596],[73.8425,19.94556]]]},"properties":{"id":"park_w1475594394","type":"park","name":"community park","name_local":null,"category":"park","source":"openstreetmap","source_id":"way/1475594394","updated_at":"2026-09-09T16:37:47Z","tags":{"addr:city":"nashik","opening_hours":"06:00–21:00"}}},{"type":"Feature","geometry":{"type":"Polygon","coordinates":[[[73.82094,19.88479],[73.82084,19.88473],[73.82069,19.88461],[73.82092,19.88428],[73.82134,19.88452],[73.8213,19.88454],[73.82094,19.88479]]]},"properties":{"id":"park_w1479592284","type":"park","name":null,"name_local":null,"category":"park","source":"openstreetmap","source_id":"way/1479592284","updated_at":"2026-02-17T09:47:19Z","tags":{}}},{"type":"Feature","geometry":{"type":"Polygon","coordinates":[[[73.82098,19.88426],[73.821,19.88411],[73.82106,19.88403],[73.82158,19.88438],[73.82138,19.88449],[73.82098,19.88426]]]},"properties":{"id":"park_w1479592285","type":"park","name":null,"name_local":null,"category":"park","source":"openstreetmap","source_id":"way/1479592285","updated_at":"2026-02-17T09:47:19Z","tags":{}}},{"type":"Feature","geometry":{"type":"Polygon","coordinates":[[[73.82098,19.88483],[73.82128,19.8846],[73.82136,19.88457],[73.82144,19.88455],[73.82148,19.88457],[73.82138,19.88459],[73.82101,19.88485],[73.82098,19.88483]]]},"properties":{"id":"park_w1479592286","type":"park","name":null,"name_local":null,"category":"park","source":"openstreetmap","source_id":"way/1479592286","updated_at":"2026-02-17T09:47:19Z","tags":{}}}]}